{"type":"FeatureCollection","features":[{"type":"Feature","properties":{"name":"Antares"},"geometry":{"type":"MultiPolygon","coordinates":[[[[-35.74187,-9.58062],[-35.74027,-9.58359],[-35.74045,-9.59027],[-35.74341,-9.59357],[-35.74403,-9.5959],[-35.73532,-9.59156],[-35.73387,-9.59167],[-35.73355,-9.58953],[-35.73187,-9.58676],[-35.73049,-9.58792],[-35.73122,-9.58655],[-35.72975,-9.58693],[-35.72721,-9.58532],[-35.72574,-9.58333],[-35.7242,-9.58336],[-35.72387,-9.57987],[-35.72321,-9.57862],[-35.72361,-9.57737],[-35.72611,-9.57556],[-35.72681,-9.5743],[-35.7268,-9.57276],[-35.73063,-9.56944],[-35.73096,-9.5671],[-35.7302,-9.56655],[-35.7304,-9.56577],[-35.7346,-9.5652],[-35.73581,-9.5627],[-35.73624,-9.56283],[-35.74131,-9.5577],[-35.74501,-9.56115],[-35.75045,-9.5715],[-35.74872,-9.57106],[-35.74677,-9.57448],[-35.74325,-9.5786],[-35.74331,-9.57938],[-35.7419,-9.58058],[-35.74187,-9.58062]]]]}},{"type":"Feature","properties":{"name":"Barro Duro"},"geometry":{"type":"MultiPolygon","coordinates":[[[[-35.72268,-9.62388],[-35.72137,-9.62453],[-35.71977,-9.62444],[-35.71869,-9.62403],[-35.71801,-9.62243],[-35.71378,-9.62323],[-35.7132,-9.62099],[-35.71172,-9.61908],[-35.71143,-9.6172],[-35.7097,-9.61689],[-35.70893,-9.6158],[-35.70908,-9.61448],[-35.71059,-9.61439],[-35.71262,-9.61212],[-35.716,-9.60978],[-35.71677,-9.6075],[-35.71894,-9.6079],[-35.72033,-9.60635],[-35.72089,-9.60645],[-35.72163,-9.6081],[-35.71817,-9.61247],[-35.71768,-9.61536],[-35.71879,-9.61426],[-35.72791,-9.61424],[-35.72877,-9.61551],[-35.72861,-9.61689],[-35.72937,-9.61752],[-35.72866,-9.6212],[-35.72695,-9.62447],[-35.72269,-9.62389],[-35.72268,-9.62388]]]]}},{"type":"Feature","properties":{"name":"Bebedouro"},"geometry":{"type":"MultiPolygon","coordinates":[[[[-35.75282,-9.62408],[-35.75438,-9.62355],[-35.7547,-9.62416],[-35.75599,-9.62342],[-35.75566,-9.62286],[-35.75652,-9.62226],[-35.76265,-9.62015],[-35.76312,-9.61984],[-35.76229,-9.61821],[-35.76309,-9.61848],[-35.76485,-9.61792],[-35.76945,-9.61454],[-35.77175,-9.61357],[-35.77167,-9.61274],[-35.7705,-9.61158],[-35.76883,-9.61111],[-35.76999,-9.61043],[-35.77143,-9.61055],[-35.76974,-9.60836],[-35.76947,-9.60645],[-35.77202,-9.6033],[-35.77518,-9.60476],[-35.77477,-9.60603],[-35.77512,-9.60897],[-35.77661,-9.61002],[-35.77675,-9.60882],[-35.77781,-9.60822],[-35.77813,-9.60976],[-35.77877,-9.60967],[-35.77508,-9.61396],[-35.77267,-9.61573],[-35.77009,-9.61672],[-35.76434,-9.62121],[-35.7611,-9.62171],[-35.75904,-9.62289],[-35.75864,-9.62391],[-35.7549,-9.6268],[-35.75444,-9.62894],[-35.7531,-9.62961],[-35.75372,-9.62985],[-35.75413,-9.63107],[-35.75235,-9.63138],[-35.75206,-9.63278],[-35.75152,-9.63286],[-35.75196,-9.6332],[-35.7515,-9.63456],[-35.74878,-9.63338],[-35.74972,-9.63138],[-35.7494,-9.63075],[-35.74417,-9.62808],[-35.74497,-9.62626],[-35.7442,-9.62549],[-35.74611,-9.62442],[-35.74588,-9.62331],[-35.74503,-9.62338],[-35.74459,-9.62257],[-35.74539,-9.62104],[-35.74829,-9.62162],[-35.74867,-9.62102],[-35.7499,-9.62242],[-35.75181,-9.62342],[-35.75228,-9.62459],[-35.75252,-9.62416],[-35.75282,-9.62408]]]]}},{"type":"Feature","properties":{"name":"Benedito Bentes"},"geometry":{"type":"MultiPolygon","coordinates":[[[[-35.72681,-9.5743],[-35.72611,-9.57556],[-35.72528,-9.57582],[-35.72331,-9.57801],[-35.72435,-9.5829],[-35.7233,-9.58596],[-35.72014,-9.58835],[-35.71925,-9.58847],[-35.71874,-9.59009],[-35.71509,-9.594],[-35.71322,-9.59476],[-35.71221,-9.59375],[-35.7132,-9.58874],[-35.71099,-9.58568],[-35.71031,-9.58289],[-35.70703,-9.58277],[-35.70537,-9.58168],[-35.70483,-9.57912],[-35.70164,-9.57759],[-35.69911,-9.57856],[-35.69536,-9.57749],[-35.69336,-9.57853],[-35.69261,-9.57986],[-35.69192,-9.57953],[-35.68778,-9.57525],[-35.68821,-9.57399],[-35.68758,-9.5724],[-35.68665,-9.57257],[-35.6849,-9.57185],[-35.68366,-9.57218],[-35.68293,-9.56983],[-35.6832,-9.56924],[-35.68206,-9.56825],[-35.68307,-9.56776],[-35.68221,-9.56653],[-35.6825,-9.56599],[-35.6817,-9.56315],[-35.68044,-9.56256],[-35.68064,-9.56183],[-35.67985,-9.56163],[-35.67966,-9.56088],[-35.68761,-9.55936],[-35.68849,-9.55738],[-35.69138,-9.55629],[-35.69367,-9.55121],[-35.69781,-9.5507],[-35.69917,-9.54977],[-35.70162,-9.5501],[-35.70307,-9.54805],[-35.70432,-9.5473],[-35.707,-9.54653],[-35.70749,-9.54581],[-35.71008,-9.54557],[-35.71187,-9.54319],[-35.71211,-9.54194],[-35.71389,-9.54044],[-35.71401,-9.53655],[-35.71583,-9.5371],[-35.71606,-9.53569],[-35.71789,-9.53525],[-35.71882,-9.53693],[-35.71933,-9.53607],[-35.72003,-9.53647],[-35.72079,-9.53611],[-35.72101,-9.53433],[-35.72306,-9.53421],[-35.72302,-9.53557],[-35.72352,-9.53586],[-35.72425,-9.53531],[-35.72374,-9.53417],[-35.74588,-9.53289],[-35.75008,-9.5322],[-35.74896,-9.53262],[-35.73731,-9.55389],[-35.74131,-9.5577],[-35.73624,-9.56283],[-35.73581,-9.5627],[-35.7346,-9.5652],[-35.7304,-9.56577],[-35.7302,-9.56655],[-35.73096,-9.5671],[-35.73063,-9.56944],[-35.7268,-9.57276],[-35.72682,-9.57425],[-35.72681,-9.5743]]]]}},{"type":"Feature","properties":{"name":"Bom Parto"},"geometry":{"type":"MultiPolygon","coordinates":[[[[-35.74108,-9.65415],[-35.73793,-9.6533],[-35.73756,-9.65251],[-35.73849,-9.65224],[-35.73963,-9.65284],[-35.74057,-9.65245],[-35.74279,-9.64813],[-35.74342,-9.6442],[-35.74429,-9.64493],[-35.74533,-9.64453],[-35.74657,-9.64573],[-35.74656,-9.64994],[-35.74547,-9.65205],[-35.74621,-9.65396],[-35.74704,-9.65412],[-35.74668,-9.65533],[-35.74564,-9.65564],[-35.74114,-9.65418],[-35.74108,-9.65415]]]]}},{"type":"Feature","properties":{"name":"Canaã"},"geometry":{"type":"MultiPolygon","coordinates":[[[[-35.73507,-9.60221],[-35.73708,-9.60203],[-35.74011,-9.59969],[-35.73964,-9.60143],[-35.74333,-9.60456],[-35.74103,-9.6068],[-35.74025,-9.61023],[-35.73291,-9.60406],[-35.73309,-9.60303],[-35.73497,-9.60222],[-35.73507,-9.60221]]]]}},{"type":"Feature","properties":{"name":"Centro"},"geometry":{"type":"MultiPolygon","coordinates":[[[[-35.74187,-9.66904],[-35.74184,-9.67221],[-35.73562,-9.67119],[-35.73095,-9.67163],[-35.73072,-9.66889],[-35.72951,-9.66762],[-35.72963,-9.66318],[-35.72864,-9.66203],[-35.72902,-9.66039],[-35.72971,-9.66083],[-35.72985,-9.66178],[-35.73383,-9.66456],[-35.7342,-9.66396],[-35.73537,-9.66399],[-35.73819,-9.65918],[-35.73986,-9.6545],[-35.73694,-9.65336],[-35.7375,-9.65287],[-35.74108,-9.65415],[-35.73984,-9.65814],[-35.74348,-9.66144],[-35.74331,-9.66762],[-35.74195,-9.66905],[-35.74187,-9.66904]]]]}},{"type":"Feature","properties":{"name":"Chã de Bebedouro"},"geometry":{"type":"MultiPolygon","coordinates":[[[[-35.75608,-9.62255],[-35.75566,-9.62286],[-35.75599,-9.62342],[-35.75515,-9.62392],[-35.75469,-9.62416],[-35.75438,-9.62355],[-35.75228,-9.62459],[-35.7517,-9.62295],[-35.75208,-9.62123],[-35.75394,-9.61951],[-35.75614,-9.6153],[-35.75841,-9.61513],[-35.75959,-9.61422],[-35.75944,-9.61475],[-35.76138,-9.61623],[-35.76309,-9.61635],[-35.76186,-9.6177],[-35.76312,-9.61984],[-35.75613,-9.62251],[-35.75608,-9.62255]]]]}},{"type":"Feature","properties":{"name":"Chã da Jaqueira"},"geometry":{"type":"MultiPolygon","coordinates":[[[[-35.74895,-9.61101],[-35.75042,-9.61089],[-35.75084,-9.61214],[-35.75152,-9.61221],[-35.75116,-9.61585],[-35.75174,-9.61537],[-35.75194,-9.61383],[-35.75301,-9.61401],[-35.75294,-9.61452],[-35.75489,-9.61613],[-35.7555,-9.61528],[-35.75614,-9.6153],[-35.75394,-9.61951],[-35.75199,-9.62139],[-35.75181,-9.62342],[-35.7499,-9.62242],[-35.74867,-9.62102],[-35.74829,-9.62162],[-35.74511,-9.62131],[-35.74198,-9.61977],[-35.7418,-9.61834],[-35.74387,-9.61584],[-35.74329,-9.61282],[-35.74381,-9.61172],[-35.74741,-9.61075],[-35.74889,-9.61095],[-35.74895,-9.61101]]]]}},{"type":"Feature","properties":{"name":"Cidade Universitária"},"geometry":{"type":"MultiPolygon","coordinates":[[[[-35.73853,-9.55508],[-35.73731,-9.55389],[-35.74896,-9.53262],[-35.77279,-9.52546],[-35.77435,-9.52377],[-35.77446,-9.52122],[-35.78,-9.51858],[-35.78139,-9.52607],[-35.79492,-9.52348],[-35.79523,-9.52383],[-35.7967,-9.53153],[-35.78244,-9.55589],[-35.77789,-9.56559],[-35.77628,-9.56557],[-35.75365,-9.55444],[-35.7507,-9.55488],[-35.74887,-9.55612],[-35.74571,-9.56258],[-35.74491,-9.56104],[-35.73862,-9.55517],[-35.73853,-9.55508]]]]}},{"type":"Feature","properties":{"name":"Clima Bom"},"geometry":{"type":"MultiPolygon","coordinates":[[[[-35.7849,-9.58224],[-35.78154,-9.5828],[-35.7788,-9.58534],[-35.77496,-9.58334],[-35.77436,-9.58133],[-35.7754,-9.57855],[-35.77699,-9.5686],[-35.77739,-9.56853],[-35.77723,-9.56757],[-35.77799,-9.56591],[-35.78942,-9.56491],[-35.79727,-9.56958],[-35.79946,-9.57286],[-35.80018,-9.57315],[-35.80253,-9.5721],[-35.80369,-9.56953],[-35.80339,-9.57199],[-35.80188,-9.57379],[-35.8021,-9.5754],[-35.80056,-9.57799],[-35.79999,-9.58298],[-35.79967,-9.58209],[-35.79877,-9.58208],[-35.79855,-9.58146],[-35.79225,-9.58034],[-35.79147,-9.57966],[-35.79013,-9.58028],[-35.79,-9.57957],[-35.78968,-9.58079],[-35.78863,-9.58058],[-35.78936,-9.58174],[-35.78711,-9.58348],[-35.7849,-9.58224]]]]}},{"type":"Feature","properties":{"name":"Cruz das Almas"},"geometry":{"type":"MultiPolygon","coordinates":[[[[-35.70289,-9.63871],[-35.70257,-9.63978],[-35.69787,-9.63977],[-35.69704,-9.63473],[-35.69289,-9.62372],[-35.69579,-9.62359],[-35.69688,-9.62585],[-35.70232,-9.62575],[-35.70422,-9.62179],[-35.70737,-9.62222],[-35.70806,-9.62171],[-35.70816,-9.62546],[-35.70885,-9.62556],[-35.7085,-9.62653],[-35.7091,-9.62677],[-35.71068,-9.63126],[-35.71026,-9.63217],[-35.70836,-9.63249],[-35.70835,-9.63304],[-35.7041,-9.63488],[-35.706,-9.63737],[-35.70603,-9.63889],[-35.70419,-9.63877],[-35.70289,-9.63871]]]]}},{"type":"Feature","properties":{"name":"Farol"},"geometry":{"type":"MultiPolygon","coordinates":[[[[-35.72965,-9.65603],[-35.7285,-9.65605],[-35.7289,-9.65337],[-35.7286,-9.65059],[-35.7276,-9.64869],[-35.72852,-9.64741],[-35.73105,-9.64623],[-35.73142,-9.64501],[-35.73238,-9.64429],[-35.73203,-9.64269],[-35.73112,-9.64184],[-35.73041,-9.64227],[-35.73068,-9.64171],[-35.73154,-9.64146],[-35.73483,-9.64341],[-35.73598,-9.63762],[-35.74176,-9.63972],[-35.74251,-9.64087],[-35.74174,-9.64237],[-35.74056,-9.64181],[-35.73994,-9.64302],[-35.7411,-9.64271],[-35.74342,-9.6442],[-35.74338,-9.64634],[-35.74057,-9.65245],[-35.73963,-9.65284],[-35.73841,-9.65224],[-35.73694,-9.65336],[-35.73986,-9.6545],[-35.73819,-9.65918],[-35.7352,-9.66411],[-35.7342,-9.66396],[-35.73383,-9.66456],[-35.72985,-9.66178],[-35.72971,-9.66083],[-35.72902,-9.66039],[-35.72942,-9.65974],[-35.72903,-9.65817],[-35.72984,-9.65748],[-35.7299,-9.65625],[-35.73101,-9.6554],[-35.72987,-9.65599],[-35.72965,-9.65603]]]]}},{"type":"Feature","properties":{"name":"Feitosa"},"geometry":{"type":"MultiPolygon","coordinates":[[[[-35.72572,-9.6432],[-35.72703,-9.64299],[-35.72797,-9.64214],[-35.72696,-9.64038],[-35.7251,-9.63893],[-35.7243,-9.63921],[-35.7237,-9.63827],[-35.72424,-9.63307],[-35.72337,-9.63137],[-35.72152,-9.63135],[-35.72064,-9.63069],[-35.71943,-9.63204],[-35.71724,-9.63184],[-35.71726,-9.6327],[-35.71546,-9.63272],[-35.71589,-9.63447],[-35.71327,-9.63454],[-35.71302,-9.63413],[-35.71386,-9.63376],[-35.71376,-9.6331],[-35.71151,-9.63282],[-35.71111,-9.63088],[-35.71361,-9.62759],[-35.71378,-9.62323],[-35.71801,-9.62243],[-35.71869,-9.62403],[-35.71977,-9.62444],[-35.72151,-9.6245],[-35.72244,-9.62379],[-35.72364,-9.62429],[-35.72657,-9.62425],[-35.72726,-9.62481],[-35.72662,-9.62621],[-35.72746,-9.62667],[-35.72758,-9.62841],[-35.72923,-9.62826],[-35.73016,-9.62925],[-35.72925,-9.63159],[-35.7297,-9.63193],[-35.72954,-9.63397],[-35.72864,-9.63469],[-35.72904,-9.63667],[-35.72875,-9.6394],[-35.72934,-9.63957],[-35.72928,-9.64018],[-35.73194,-9.641],[-35.73187,-9.6416],[-35.73101,-9.64134],[-35.73034,-9.64217],[-35.73112,-9.64184],[-35.73203,-9.64269],[-35.73239,-9.64426],[-35.73142,-9.64501],[-35.73105,-9.64623],[-35.72972,-9.64657],[-35.72797,-9.64812],[-35.72699,-9.64725],[-35.72493,-9.64736],[-35.72389,-9.64615],[-35.7239,-9.64424],[-35.72566,-9.64325],[-35.72572,-9.6432]]]]}},{"type":"Feature","properties":{"name":"Fernão Velho"},"geometry":{"type":"MultiPolygon","coordinates":[[[[-35.78485,-9.59299],[-35.78397,-9.59294],[-35.78173,-9.59455],[-35.78144,-9.59428],[-35.78103,-9.59585],[-35.77842,-9.59731],[-35.77676,-9.59947],[-35.77616,-9.6006],[-35.77638,-9.60153],[-35.7754,-9.60084],[-35.77655,-9.60223],[-35.77518,-9.60476],[-35.77177,-9.60316],[-35.77145,-9.6003],[-35.77361,-9.59707],[-35.7725,-9.59516],[-35.77313,-9.5936],[-35.7751,-9.59179],[-35.7769,-9.59132],[-35.77905,-9.59163],[-35.78051,-9.5908],[-35.78039,-9.58976],[-35.77956,-9.58937],[-35.7816,-9.58707],[-35.78083,-9.58467],[-35.78147,-9.58345],[-35.78464,-9.58284],[-35.78706,-9.58451],[-35.78739,-9.58702],[-35.79352,-9.58815],[-35.7944,-9.58701],[-35.79306,-9.5858],[-35.78974,-9.58475],[-35.78858,-9.58385],[-35.7923,-9.58217],[-35.79013,-9.58028],[-35.79147,-9.57966],[-35.79225,-9.58034],[-35.798,-9.58128],[-35.79876,-9.58155],[-35.79877,-9.58208],[-35.79967,-9.58209],[-35.80043,-9.58337],[-35.80009,-9.58489],[-35.79788,-9.58707],[-35.79829,-9.58755],[-35.79745,-9.58896],[-35.79766,-9.58976],[-35.79599,-9.59034],[-35.79152,-9.58953],[-35.78966,-9.58977],[-35.78777,-9.59175],[-35.78722,-9.59196],[-35.78681,-9.59129],[-35.78718,-9.59179],[-35.78486,-9.59297],[-35.78485,-9.59299]]]]}},{"type":"Feature","properties":{"name":"Garça Torta"},"geometry":{"type":"MultiPolygon","coordinates":[[[[-35.66711,-9.58642],[-35.66734,-9.58808],[-35.66819,-9.58854],[-35.66763,-9.59062],[-35.66579,-9.58938],[-35.66529,-9.58983],[-35.66471,-9.58854],[-35.6631,-9.58745],[-35.65914,-9.583],[-35.65891,-9.58267],[-35.66035,-9.58188],[-35.65922,-9.58079],[-35.66099,-9.57969],[-35.66117,-9.57843],[-35.6632,-9.57867],[-35.66428,-9.57746],[-35.66551,-9.5778],[-35.6662,-9.57866],[-35.66747,-9.57822],[-35.66816,-9.5791],[-35.67256,-9.5756],[-35.67215,-9.57342],[-35.67689,-9.57379],[-35.68052,-9.56805],[-35.68235,-9.56663],[-35.68307,-9.56776],[-35.68207,-9.56829],[-35.68315,-9.56912],[-35.68293,-9.56983],[-35.6839,-9.57234],[-35.68336,-9.57308],[-35.68012,-9.57503],[-35.67631,-9.57933],[-35.67204,-9.58102],[-35.67094,-9.58222],[-35.6703,-9.58203],[-35.66908,-9.5859],[-35.66712,-9.58642],[-35.66711,-9.58642]]]]}},{"type":"Feature","properties":{"name":"Gruta de Lourdes"},"geometry":{"type":"MultiPolygon","coordinates":[[[[-35.73126,-9.61558],[-35.73263,-9.61435],[-35.73122,-9.6126],[-35.73188,-9.61112],[-35.73077,-9.60933],[-35.7318,-9.60754],[-35.73181,-9.60524],[-35.73318,-9.60434],[-35.74184,-9.61173],[-35.74271,-9.61192],[-35.74395,-9.61449],[-35.7437,-9.61644],[-35.7418,-9.61834],[-35.74198,-9.61977],[-35.74218,-9.62025],[-35.74528,-9.62125],[-35.74459,-9.62257],[-35.74346,-9.62187],[-35.74307,-9.62409],[-35.74043,-9.62194],[-35.73886,-9.62217],[-35.73723,-9.63132],[-35.7326,-9.62928],[-35.7316,-9.62986],[-35.73021,-9.62963],[-35.72923,-9.62826],[-35.72767,-9.62851],[-35.72746,-9.62667],[-35.72662,-9.62621],[-35.72711,-9.62398],[-35.7278,-9.62348],[-35.72866,-9.6212],[-35.72937,-9.61752],[-35.73056,-9.61692],[-35.73058,-9.61609],[-35.73124,-9.61558],[-35.73126,-9.61558]]]]}},{"type":"Feature","properties":{"name":"Guaxuma"},"geometry":{"type":"MultiPolygon","coordinates":[[[[-35.67931,-9.60031],[-35.67872,-9.60219],[-35.678,-9.6026],[-35.67688,-9.60043],[-35.67413,-9.59733],[-35.66906,-9.59307],[-35.66583,-9.59148],[-35.66529,-9.58983],[-35.66579,-9.58938],[-35.66703,-9.59041],[-35.66793,-9.59037],[-35.66757,-9.58958],[-35.66817,-9.58845],[-35.66738,-9.58815],[-35.66703,-9.58662],[-35.66908,-9.5859],[-35.6703,-9.58203],[-35.67094,-9.58222],[-35.67204,-9.58102],[-35.67631,-9.57933],[-35.68012,-9.57503],[-35.6812,-9.57473],[-35.68445,-9.57184],[-35.68665,-9.57257],[-35.68726,-9.57225],[-35.68821,-9.57399],[-35.68778,-9.57525],[-35.69261,-9.57986],[-35.68778,-9.58661],[-35.68508,-9.59449],[-35.68217,-9.59569],[-35.68279,-9.59623],[-35.68308,-9.59891],[-35.67932,-9.60031],[-35.67931,-9.60031]]]]}},{"type":"Feature","properties":{"name":"Ipioca"},"geometry":{"type":"MultiPolygon","coordinates":[[[[-35.61203,-9.51688],[-35.61312,-9.51783],[-35.61723,-9.51866],[-35.62397,-9.52155],[-35.62921,-9.53251],[-35.62477,-9.53446],[-35.619,-9.53251],[-35.61593,-9.53272],[-35.61474,-9.53681],[-35.61689,-9.53949],[-35.6186,-9.53872],[-35.61942,-9.53937],[-35.61962,-9.54104],[-35.61878,-9.54187],[-35.61755,-9.54624],[-35.61889,-9.54734],[-35.62072,-9.54743],[-35.62082,-9.54828],[-35.62018,-9.54891],[-35.61688,-9.54735],[-35.61746,-9.54592],[-35.61567,-9.54451],[-35.61381,-9.53936],[-35.60681,-9.53267],[-35.60165,-9.53001],[-35.59713,-9.52962],[-35.59283,-9.53077],[-35.59141,-9.52913],[-35.59082,-9.52034],[-35.59015,-9.51757],[-35.58695,-9.51123],[-35.58239,-9.50779],[-35.57929,-9.50285],[-35.57429,-9.50013],[-35.5712,-9.4964],[-35.56672,-9.49394],[-35.55849,-9.48753],[-35.55905,-9.48516],[-35.56038,-9.48523],[-35.5624,-9.47976],[-35.56757,-9.47899],[-35.57892,-9.47187],[-35.58409,-9.47885],[-35.59215,-9.48743],[-35.59896,-9.49748],[-35.60233,-9.50534],[-35.60723,-9.51011],[-35.61174,-9.51643],[-35.61203,-9.51688]]]]}},{"type":"Feature","properties":{"name":"Jacarecica"},"geometry":{"type":"MultiPolygon","coordinates":[[[[-35.69795,-9.6082],[-35.69759,-9.609],[-35.69547,-9.60788],[-35.69366,-9.60767],[-35.69209,-9.61068],[-35.69621,-9.61545],[-35.69919,-9.616],[-35.70183,-9.6155],[-35.70209,-9.61701],[-35.69893,-9.61803],[-35.69829,-9.61883],[-35.69944,-9.61978],[-35.70146,-9.61948],[-35.70399,-9.62071],[-35.7042,-9.62227],[-35.70232,-9.62575],[-35.69688,-9.62585],[-35.69579,-9.62359],[-35.69289,-9.62372],[-35.69091,-9.61988],[-35.68447,-9.61106],[-35.68012,-9.60687],[-35.678,-9.6026],[-35.6788,-9.60203],[-35.67899,-9.60047],[-35.68308,-9.59891],[-35.68279,-9.59623],[-35.68217,-9.59569],[-35.685,-9.59461],[-35.6891,-9.5842],[-35.6923,-9.58051],[-35.69312,-9.57877],[-35.69536,-9.57749],[-35.69911,-9.57856],[-35.70164,-9.57759],[-35.70432,-9.57871],[-35.70518,-9.57975],[-35.70537,-9.58168],[-35.70703,-9.58277],[-35.71031,-9.58289],[-35.71099,-9.58568],[-35.7132,-9.58874],[-35.71224,-9.59531],[-35.71109,-9.59613],[-35.70994,-9.59575],[-35.70911,-9.59637],[-35.70872,-9.59518],[-35.70742,-9.59556],[-35.70771,-9.59499],[-35.70712,-9.59428],[-35.70511,-9.59468],[-35.70366,-9.59736],[-35.70477,-9.59974],[-35.70451,-9.60127],[-35.7013,-9.6049],[-35.70129,-9.60551],[-35.69813,-9.60812],[-35.69795,-9.6082]]]]}},{"type":"Feature","properties":{"name":"Jacintinho"},"geometry":{"type":"MultiPolygon","coordinates":[[[[-35.71133,-9.64154],[-35.70883,-9.6411],[-35.70762,-9.63873],[-35.70603,-9.63889],[-35.706,-9.63737],[-35.7041,-9.63488],[-35.70835,-9.63304],[-35.70836,-9.63249],[-35.71026,-9.63217],[-35.71111,-9.63088],[-35.71166,-9.63306],[-35.71376,-9.6331],[-35.71386,-9.63376],[-35.71302,-9.63413],[-35.71327,-9.63454],[-35.71589,-9.63447],[-35.71546,-9.63272],[-35.71726,-9.6327],[-35.71724,-9.63184],[-35.71943,-9.63204],[-35.72064,-9.63069],[-35.72152,-9.63135],[-35.72337,-9.63137],[-35.72424,-9.63307],[-35.7237,-9.63827],[-35.7243,-9.63921],[-35.7251,-9.63893],[-35.72696,-9.64038],[-35.72797,-9.64214],[-35.7239,-9.64424],[-35.72389,-9.64615],[-35.72504,-9.64741],[-35.72778,-9.6476],[-35.72764,-9.64902],[-35.7286,-9.65059],[-35.7289,-9.65316],[-35.72848,-9.65587],[-35.72884,-9.65746],[-35.7271,-9.65728],[-35.72696,-9.65887],[-35.72602,-9.65887],[-35.7257,-9.65764],[-35.72564,-9.65811],[-35.72379,-9.65608],[-35.72399,-9.65563],[-35.72305,-9.65509],[-35.72205,-9.65285],[-35.71939,-9.6497],[-35.71979,-9.64935],[-35.71867,-9.64889],[-35.71716,-9.64665],[-35.71613,-9.64647],[-35.71528,-9.64457],[-35.71486,-9.64481],[-35.71506,-9.64397],[-35.71447,-9.64277],[-35.71094,-9.64299],[-35.71169,-9.64228],[-35.7113,-9.64175],[-35.71133,-9.64154]]]]}},{"type":"Feature","properties":{"name":"Jaraguá"},"geometry":{"type":"MultiPolygon","coordinates":[[[[-35.72309,-9.67571],[-35.7251,-9.67968],[-35.72316,-9.6807],[-35.72445,-9.6832],[-35.72856,-9.68149],[-35.72891,-9.68239],[-35.72958,-9.68215],[-35.72974,-9.68261],[-35.72463,-9.6846],[-35.72299,-9.68437],[-35.71911,-9.67771],[-35.71634,-9.67466],[-35.72012,-9.67418],[-35.7182,-9.67222],[-35.71953,-9.67015],[-35.71967,-9.66833],[-35.72028,-9.66863],[-35.72211,-9.66733],[-35.72947,-9.66697],[-35.73072,-9.66889],[-35.73095,-9.67163],[-35.72734,-9.67269],[-35.72303,-9.6756],[-35.72309,-9.67571]]]]}},{"type":"Feature","properties":{"name":"Jardim Petrópolis"},"geometry":{"type":"MultiPolygon","coordinates":[[[[-35.74548,-9.60369],[-35.74333,-9.60456],[-35.73964,-9.60143],[-35.74011,-9.59969],[-35.73708,-9.60203],[-35.734,-9.60235],[-35.73299,-9.60084],[-35.72979,-9.5991],[-35.73084,-9.59664],[-35.73292,-9.59467],[-35.73395,-9.59161],[-35.73532,-9.59156],[-35.74403,-9.5959],[-35.74341,-9.59357],[-35.7405,-9.5905],[-35.74008,-9.58494],[-35.74118,-9.58623],[-35.74448,-9.58453],[-35.74575,-9.58516],[-35.74502,-9.58614],[-35.74498,-9.5884],[-35.74447,-9.58926],[-35.74957,-9.59358],[-35.75394,-9.59059],[-35.75546,-9.59296],[-35.75197,-9.59522],[-35.7475,-9.6026],[-35.7458,-9.60356],[-35.74548,-9.60369]]]]}},{"type":"Feature","properties":{"name":"Jatiúca"},"geometry":{"type":"MultiPolygon","coordinates":[[[[-35.69846,-9.65243],[-35.69964,-9.64791],[-35.69803,-9.6432],[-35.69787,-9.63977],[-35.70425,-9.63976],[-35.70443,-9.64086],[-35.70551,-9.6408],[-35.70597,-9.64302],[-35.71033,-9.64268],[-35.71039,-9.64504],[-35.71606,-9.65099],[-35.71733,-9.65127],[-35.72319,-9.65704],[-35.7229,-9.65741],[-35.72119,-9.65586],[-35.70897,-9.6567],[-35.70899,-9.6558],[-35.69792,-9.65583],[-35.69842,-9.65266],[-35.69846,-9.65243]]]]}},{"type":"Feature","properties":{"name":"Levada"},"geometry":{"type":"MultiPolygon","coordinates":[[[[-35.74018,-9.65642],[-35.74108,-9.65415],[-35.74564,-9.65564],[-35.74664,-9.65538],[-35.74704,-9.65412],[-35.75015,-9.65587],[-35.7481,-9.66203],[-35.7491,-9.66477],[-35.7432,-9.6653],[-35.74348,-9.66144],[-35.74002,-9.65852],[-35.74012,-9.65657],[-35.74018,-9.65642]]]]}},{"type":"Feature","properties":{"name":"Mangabeiras"},"geometry":{"type":"MultiPolygon","coordinates":[[[[-35.70707,-9.64289],[-35.70591,-9.64296],[-35.70551,-9.6408],[-35.70443,-9.64086],[-35.70425,-9.63976],[-35.70257,-9.63978],[-35.70289,-9.63871],[-35.70762,-9.63873],[-35.70883,-9.6411],[-35.71133,-9.64154],[-35.71169,-9.64228],[-35.71094,-9.64299],[-35.71447,-9.64277],[-35.71506,-9.64397],[-35.71486,-9.64481],[-35.71528,-9.64457],[-35.71613,-9.64647],[-35.71716,-9.64665],[-35.71867,-9.64889],[-35.71979,-9.64935],[-35.71939,-9.6497],[-35.72464,-9.65696],[-35.72306,-9.65698],[-35.7185,-9.65227],[-35.71495,-9.6499],[-35.71039,-9.64504],[-35.71033,-9.64268],[-35.70711,-9.64289],[-35.70707,-9.64289]]]]}},{"type":"Feature","properties":{"name":"Mutange"},"geometry":{"type":"MultiPolygon","coordinates":[[[[-35.74642,-9.63778],[-35.74543,-9.63723],[-35.7476,-9.63464],[-35.74769,-9.63296],[-35.74984,-9.63406],[-35.75044,-9.63372],[-35.7515,-9.63456],[-35.75014,-9.63658],[-35.74987,-9.6388],[-35.74722,-9.6435],[-35.74657,-9.64573],[-35.74533,-9.64453],[-35.74429,-9.64493],[-35.74329,-9.64415],[-35.74639,-9.63785],[-35.74642,-9.63778]]]]}},{"type":"Feature","properties":{"name":"Ouro Preto"},"geometry":{"type":"MultiPolygon","coordinates":[[[[-35.73186,-9.60677],[-35.73077,-9.60933],[-35.73188,-9.61112],[-35.73175,-9.61223],[-35.73078,-9.61297],[-35.72928,-9.61119],[-35.72932,-9.60883],[-35.7288,-9.60852],[-35.72941,-9.60736],[-35.72811,-9.60514],[-35.72862,-9.60486],[-35.72798,-9.60357],[-35.72848,-9.60304],[-35.72794,-9.60263],[-35.7286,-9.60275],[-35.72926,-9.6018],[-35.72855,-9.6015],[-35.72843,-9.60048],[-35.72933,-9.59908],[-35.73292,-9.60079],[-35.73343,-9.6021],[-35.73407,-9.60234],[-35.7341,-9.60283],[-35.733,-9.60313],[-35.73288,-9.6049],[-35.73181,-9.60524],[-35.73186,-9.60673],[-35.73186,-9.60677]]]]}},{"type":"Feature","properties":{"name":"Pajuçara"},"geometry":{"type":"MultiPolygon","coordinates":[[[[-35.7116,-9.66376],[-35.71638,-9.66868],[-35.71956,-9.66373],[-35.71968,-9.66961],[-35.7182,-9.67222],[-35.72012,-9.67418],[-35.71634,-9.67466],[-35.71121,-9.66739],[-35.708,-9.66495],[-35.70909,-9.66309],[-35.70868,-9.66294],[-35.7089,-9.66231],[-35.71052,-9.66295],[-35.7116,-9.66376]]]]}},{"type":"Feature","properties":{"name":"Pescaria"},"geometry":{"type":"MultiPolygon","coordinates":[[[[-35.63212,-9.55032],[-35.63031,-9.55145],[-35.62938,-9.55055],[-35.62683,-9.55036],[-35.62572,-9.54893],[-35.62312,-9.54819],[-35.62219,-9.54708],[-35.61954,-9.5474],[-35.61782,-9.54671],[-35.61753,-9.5456],[-35.61975,-9.54051],[-35.61909,-9.53885],[-35.61689,-9.53949],[-35.61474,-9.53681],[-35.61621,-9.53244],[-35.619,-9.53251],[-35.62477,-9.53446],[-35.62921,-9.53251],[-35.63778,-9.53743],[-35.64244,-9.54103],[-35.64134,-9.54127],[-35.64042,-9.54445],[-35.63799,-9.54539],[-35.63624,-9.54537],[-35.636,-9.54593],[-35.63667,-9.54706],[-35.63607,-9.5482],[-35.63214,-9.55028],[-35.63212,-9.55032]]]]}},{"type":"Feature","properties":{"name":"Petrópolis"},"geometry":{"type":"MultiPolygon","coordinates":[[[[-35.75376,-9.59395],[-35.75779,-9.59161],[-35.76392,-9.59764],[-35.76342,-9.59847],[-35.76488,-9.60015],[-35.76739,-9.59979],[-35.76867,-9.60075],[-35.7679,-9.60119],[-35.76812,-9.60411],[-35.76703,-9.60509],[-35.76824,-9.60596],[-35.76754,-9.60653],[-35.76703,-9.6094],[-35.76782,-9.61037],[-35.76699,-9.61081],[-35.76667,-9.61221],[-35.76541,-9.61306],[-35.7647,-9.61485],[-35.76299,-9.6164],[-35.76138,-9.61623],[-35.75944,-9.61475],[-35.75959,-9.61422],[-35.75841,-9.61513],[-35.7555,-9.61528],[-35.75489,-9.61613],[-35.75294,-9.61452],[-35.75301,-9.61401],[-35.75194,-9.61383],[-35.75174,-9.61537],[-35.75116,-9.61585],[-35.75152,-9.61221],[-35.75084,-9.61214],[-35.75042,-9.61089],[-35.74933,-9.61123],[-35.74741,-9.61075],[-35.74402,-9.61174],[-35.74419,-9.60592],[-35.74294,-9.60477],[-35.7475,-9.6026],[-35.75143,-9.59588],[-35.75298,-9.59439],[-35.75376,-9.59395]],[[-35.74581,-9.60844],[-35.74578,-9.60842],[-35.74574,-9.6084],[-35.74563,-9.60832],[-35.74581,-9.60844]]]]}},{"type":"Feature","properties":{"name":"Pinheiro"},"geometry":{"type":"MultiPolygon","coordinates":[[[[-35.74415,-9.6419],[-35.74329,-9.64415],[-35.7411,-9.64271],[-35.73994,-9.64302],[-35.74056,-9.64181],[-35.74174,-9.64237],[-35.74251,-9.64087],[-35.74176,-9.63972],[-35.73598,-9.63762],[-35.73886,-9.62217],[-35.74043,-9.62194],[-35.74307,-9.62409],[-35.74346,-9.62187],[-35.74503,-9.62338],[-35.74588,-9.62331],[-35.74609,-9.62445],[-35.7442,-9.62549],[-35.74497,-9.62626],[-35.74417,-9.62808],[-35.7494,-9.63075],[-35.74972,-9.63138],[-35.74878,-9.63338],[-35.74769,-9.63296],[-35.7476,-9.63464],[-35.74544,-9.63721],[-35.74642,-9.63778],[-35.74628,-9.63837],[-35.74417,-9.6419],[-35.74415,-9.6419]]]]}},{"type":"Feature","properties":{"name":"Pitanguinha"},"geometry":{"type":"MultiPolygon","coordinates":[[[[-35.72958,-9.63352],[-35.7297,-9.63193],[-35.72925,-9.63159],[-35.73039,-9.62951],[-35.73146,-9.62988],[-35.73264,-9.62929],[-35.73723,-9.63132],[-35.73483,-9.64341],[-35.73318,-9.64272],[-35.73321,-9.6422],[-35.73187,-9.6416],[-35.73194,-9.641],[-35.72928,-9.64018],[-35.72934,-9.63957],[-35.72875,-9.6394],[-35.72904,-9.63667],[-35.72864,-9.63469],[-35.72929,-9.63445],[-35.72957,-9.63355],[-35.72958,-9.63352]]]]}},{"type":"Feature","properties":{"name":"Poço"},"geometry":{"type":"MultiPolygon","coordinates":[[[[-35.71273,-9.65636],[-35.72119,-9.65586],[-35.7229,-9.65741],[-35.72473,-9.65696],[-35.72564,-9.65811],[-35.7257,-9.65764],[-35.72602,-9.65887],[-35.72696,-9.65887],[-35.7271,-9.65728],[-35.72884,-9.65746],[-35.72854,-9.65616],[-35.73101,-9.6554],[-35.7299,-9.65625],[-35.72984,-9.65748],[-35.72903,-9.65817],[-35.72942,-9.65974],[-35.72864,-9.66203],[-35.72963,-9.66318],[-35.72947,-9.66697],[-35.72211,-9.66733],[-35.72028,-9.66863],[-35.71967,-9.66833],[-35.71976,-9.66234],[-35.71176,-9.6622],[-35.71176,-9.66016],[-35.71088,-9.66015],[-35.71029,-9.65895],[-35.71025,-9.65638],[-35.71177,-9.65637],[-35.71273,-9.65636]]]]}},{"type":"Feature","properties":{"name":"Ponta da Terra"},"geometry":{"type":"MultiPolygon","coordinates":[[[[-35.71307,-9.66524],[-35.70988,-9.66263],[-35.71088,-9.66015],[-35.71176,-9.66016],[-35.71176,-9.6622],[-35.71976,-9.66234],[-35.71956,-9.66373],[-35.71638,-9.66868],[-35.7134,-9.66557],[-35.71307,-9.66524]]]]}},{"type":"Feature","properties":{"name":"Ponta Grossa"},"geometry":{"type":"MultiPolygon","coordinates":[[[[-35.75443,-9.65845],[-35.75595,-9.66045],[-35.75844,-9.65927],[-35.76095,-9.65979],[-35.76702,-9.65732],[-35.76781,-9.65903],[-35.76472,-9.66502],[-35.76406,-9.66492],[-35.76443,-9.66372],[-35.7491,-9.66477],[-35.7481,-9.66203],[-35.75015,-9.65587],[-35.75169,-9.65545],[-35.75441,-9.65842],[-35.75443,-9.65845]]]]}},{"type":"Feature","properties":{"name":"Pontal da Barra"},"geometry":{"type":"MultiPolygon","coordinates":[[[[-35.76733,-9.67547],[-35.7685,-9.67599],[-35.76878,-9.68002],[-35.76968,-9.68341],[-35.77298,-9.68872],[-35.77829,-9.69272],[-35.78175,-9.69775],[-35.78273,-9.70075],[-35.78316,-9.70082],[-35.78316,-9.70195],[-35.78442,-9.70369],[-35.79118,-9.70684],[-35.79403,-9.70893],[-35.79471,-9.71014],[-35.79658,-9.71066],[-35.79478,-9.71309],[-35.79296,-9.7117],[-35.79152,-9.71182],[-35.78984,-9.71117],[-35.78072,-9.70163],[-35.7782,-9.7],[-35.7717,-9.69288],[-35.76429,-9.68786],[-35.76114,-9.68324],[-35.75891,-9.68136],[-35.76009,-9.6776],[-35.76349,-9.67685],[-35.76325,-9.67629],[-35.7643,-9.67605],[-35.76465,-9.67534],[-35.76718,-9.67542],[-35.76733,-9.67547]]],[[[-35.75824,-9.69346],[-35.75799,-9.69269],[-35.76041,-9.69496],[-35.75839,-9.69364],[-35.75824,-9.69346]]]]}},{"type":"Feature","properties":{"name":"Ponta Verde"},"geometry":{"type":"MultiPolygon","coordinates":[[[[-35.70311,-9.66409],[-35.69718,-9.66511],[-35.69666,-9.66623],[-35.69612,-9.66623],[-35.6951,-9.66336],[-35.69763,-9.65918],[-35.69792,-9.65583],[-35.70899,-9.6558],[-35.70897,-9.6567],[-35.71026,-9.65669],[-35.71028,-9.65891],[-35.71104,-9.66053],[-35.70988,-9.66263],[-35.7089,-9.66231],[-35.70868,-9.66294],[-35.70909,-9.66309],[-35.70801,-9.66494],[-35.70312,-9.66409],[-35.70311,-9.66409]]]]}},{"type":"Feature","properties":{"name":"Prado"},"geometry":{"type":"MultiPolygon","coordinates":[[[[-35.74496,-9.67321],[-35.74184,-9.67221],[-35.74187,-9.66904],[-35.74322,-9.66792],[-35.74324,-9.66526],[-35.75776,-9.66416],[-35.75778,-9.66798],[-35.75462,-9.66776],[-35.75425,-9.66896],[-35.75549,-9.66923],[-35.755,-9.67081],[-35.75544,-9.67096],[-35.75296,-9.67741],[-35.74586,-9.67352],[-35.74496,-9.67321]]]]}},{"type":"Feature","properties":{"name":"Riacho Doce"},"geometry":{"type":"MultiPolygon","coordinates":[[[[-35.66096,-9.55799],[-35.66341,-9.56078],[-35.66654,-9.56596],[-35.67307,-9.56012],[-35.67938,-9.56058],[-35.67985,-9.56163],[-35.68064,-9.56183],[-35.68044,-9.56256],[-35.68157,-9.5629],[-35.6825,-9.56599],[-35.68052,-9.56805],[-35.67884,-9.57117],[-35.67805,-9.57156],[-35.67713,-9.57363],[-35.67597,-9.57395],[-35.67215,-9.57342],[-35.67256,-9.5756],[-35.66816,-9.5791],[-35.66747,-9.57822],[-35.6662,-9.57866],[-35.66551,-9.5778],[-35.66428,-9.57746],[-35.6632,-9.57867],[-35.66117,-9.57843],[-35.66099,-9.57969],[-35.65922,-9.58079],[-35.66035,-9.58188],[-35.65891,-9.58267],[-35.65724,-9.58078],[-35.65544,-9.57731],[-35.65419,-9.57299],[-35.6513,-9.57036],[-35.6508,-9.56854],[-35.64646,-9.56701],[-35.64238,-9.56113],[-35.6354,-9.55555],[-35.62416,-9.54994],[-35.62018,-9.54891],[-35.62091,-9.54799],[-35.62051,-9.54732],[-35.62219,-9.54708],[-35.62312,-9.54819],[-35.62572,-9.54893],[-35.62683,-9.55036],[-35.62938,-9.55055],[-35.6302,-9.55141],[-35.63109,-9.55135],[-35.63607,-9.5482],[-35.63667,-9.54706],[-35.636,-9.54593],[-35.63624,-9.54537],[-35.63799,-9.54539],[-35.64042,-9.54445],[-35.64129,-9.54136],[-35.64216,-9.54095],[-35.64658,-9.54444],[-35.65199,-9.54994],[-35.65422,-9.55297],[-35.66055,-9.55763],[-35.66096,-9.55799]]]]}},{"type":"Feature","properties":{"name":"Rio Novo"},"geometry":{"type":"MultiPolygon","coordinates":[[[[-35.80693,-9.58605],[-35.80618,-9.58697],[-35.80271,-9.58813],[-35.80232,-9.58933],[-35.80324,-9.59105],[-35.8026,-9.5926],[-35.79671,-9.5954],[-35.79593,-9.59523],[-35.79626,-9.59377],[-35.7973,-9.59251],[-35.79934,-9.59233],[-35.7991,-9.59152],[-35.79997,-9.59145],[-35.79845,-9.59062],[-35.79873,-9.58908],[-35.79758,-9.58933],[-35.79829,-9.58755],[-35.79788,-9.58707],[-35.80009,-9.58489],[-35.80043,-9.58337],[-35.79991,-9.58091],[-35.80077,-9.57913],[-35.80068,-9.57764],[-35.8021,-9.5754],[-35.80188,-9.57379],[-35.80337,-9.57204],[-35.80391,-9.57039],[-35.80366,-9.56796],[-35.80638,-9.56655],[-35.80989,-9.56862],[-35.81374,-9.57947],[-35.81435,-9.58001],[-35.81273,-9.58141],[-35.80886,-9.58195],[-35.80844,-9.58319],[-35.80954,-9.58505],[-35.80732,-9.58592],[-35.80693,-9.58605]]]]}},{"type":"Feature","properties":{"name":"Santa Amélia"},"geometry":{"type":"MultiPolygon","coordinates":[[[[-35.76717,-9.60841],[-35.76754,-9.60653],[-35.76825,-9.60615],[-35.76703,-9.60509],[-35.76812,-9.60411],[-35.7679,-9.60119],[-35.76864,-9.60089],[-35.76926,-9.59832],[-35.76985,-9.59858],[-35.76826,-9.59452],[-35.77063,-9.59461],[-35.76993,-9.59138],[-35.77059,-9.59147],[-35.77077,-9.58951],[-35.77436,-9.58133],[-35.77514,-9.5836],[-35.7788,-9.58534],[-35.78154,-9.5828],[-35.78448,-9.5821],[-35.78711,-9.58348],[-35.78936,-9.58174],[-35.78863,-9.58058],[-35.78968,-9.58079],[-35.79,-9.57957],[-35.79016,-9.58047],[-35.79077,-9.5805],[-35.7923,-9.58217],[-35.78968,-9.58368],[-35.78878,-9.58354],[-35.78868,-9.58408],[-35.79285,-9.58564],[-35.7944,-9.58701],[-35.79392,-9.58787],[-35.79263,-9.58821],[-35.78739,-9.58702],[-35.78706,-9.58451],[-35.78464,-9.58284],[-35.78147,-9.58345],[-35.78083,-9.58467],[-35.7816,-9.58707],[-35.77956,-9.58937],[-35.78039,-9.58976],[-35.78051,-9.5908],[-35.77905,-9.59163],[-35.7769,-9.59132],[-35.77464,-9.59203],[-35.77252,-9.59509],[-35.77361,-9.59707],[-35.77145,-9.6003],[-35.77202,-9.6033],[-35.76947,-9.60645],[-35.76974,-9.60836],[-35.77143,-9.61055],[-35.76999,-9.61043],[-35.76883,-9.61111],[-35.7705,-9.61158],[-35.77167,-9.61274],[-35.77175,-9.61357],[-35.76945,-9.61454],[-35.76485,-9.61792],[-35.76217,-9.6183],[-35.76187,-9.61765],[-35.7647,-9.61485],[-35.76505,-9.61354],[-35.76671,-9.61215],[-35.76699,-9.61081],[-35.76773,-9.61055],[-35.76785,-9.61003],[-35.76704,-9.60946],[-35.76717,-9.60843],[-35.76717,-9.60841]]]]}},{"type":"Feature","properties":{"name":"Santa Lúcia"},"geometry":{"type":"MultiPolygon","coordinates":[[[[-35.75592,-9.5927],[-35.75546,-9.59296],[-35.75394,-9.59059],[-35.74957,-9.59358],[-35.74447,-9.58926],[-35.74498,-9.5884],[-35.74502,-9.58614],[-35.74575,-9.58516],[-35.74448,-9.58453],[-35.74118,-9.58623],[-35.74008,-9.58494],[-35.7417,-9.58077],[-35.74331,-9.57938],[-35.74325,-9.5786],[-35.74677,-9.57448],[-35.74872,-9.57106],[-35.7524,-9.57162],[-35.75988,-9.57707],[-35.76071,-9.57771],[-35.75997,-9.5787],[-35.76293,-9.58032],[-35.76247,-9.58142],[-35.76395,-9.58245],[-35.76324,-9.58342],[-35.76444,-9.58461],[-35.76256,-9.58715],[-35.75967,-9.59052],[-35.75666,-9.59227],[-35.75592,-9.5927]]]]}},{"type":"Feature","properties":{"name":"Santo Amaro"},"geometry":{"type":"MultiPolygon","coordinates":[[[[-35.74391,-9.60566],[-35.74411,-9.61126],[-35.74323,-9.61278],[-35.74025,-9.61023],[-35.74138,-9.60624],[-35.74294,-9.60477],[-35.74376,-9.60544],[-35.74391,-9.60566]]]]}},{"type":"Feature","properties":{"name":"Santos Dumont"},"geometry":{"type":"MultiPolygon","coordinates":[[[[-35.78189,-9.55702],[-35.79656,-9.53144],[-35.80989,-9.56862],[-35.80695,-9.56663],[-35.80476,-9.56717],[-35.80366,-9.56796],[-35.80289,-9.57169],[-35.80176,-9.57277],[-35.80018,-9.57315],[-35.79946,-9.57286],[-35.79727,-9.56958],[-35.78942,-9.56491],[-35.7782,-9.56609],[-35.77783,-9.56503],[-35.78168,-9.55743],[-35.78189,-9.55702]]]]}},{"type":"Feature","properties":{"name":"São Jorge"},"geometry":{"type":"MultiPolygon","coordinates":[[[[-35.69759,-9.609],[-35.69876,-9.60763],[-35.70085,-9.60775],[-35.70414,-9.61375],[-35.70565,-9.61443],[-35.70908,-9.61448],[-35.7091,-9.61634],[-35.71143,-9.6172],[-35.71172,-9.61908],[-35.7132,-9.62099],[-35.71379,-9.62325],[-35.71361,-9.62759],[-35.71111,-9.63088],[-35.71018,-9.63057],[-35.7091,-9.62677],[-35.7085,-9.62653],[-35.70885,-9.62556],[-35.70816,-9.62546],[-35.70806,-9.62171],[-35.70737,-9.62222],[-35.70422,-9.62179],[-35.70399,-9.62071],[-35.70146,-9.61948],[-35.69977,-9.6198],[-35.69882,-9.61943],[-35.69829,-9.61883],[-35.69893,-9.61803],[-35.70209,-9.61701],[-35.70183,-9.6155],[-35.69919,-9.616],[-35.69621,-9.61545],[-35.69209,-9.61068],[-35.69366,-9.60767],[-35.69479,-9.60765],[-35.69744,-9.60891],[-35.69759,-9.609]]]]}},{"type":"Feature","properties":{"name":"Serraria"},"geometry":{"type":"MultiPolygon","coordinates":[[[[-35.71619,-9.59282],[-35.71877,-9.59005],[-35.71925,-9.58847],[-35.72014,-9.58835],[-35.72323,-9.58606],[-35.7242,-9.58336],[-35.72574,-9.58333],[-35.72721,-9.58532],[-35.72975,-9.58693],[-35.73122,-9.58655],[-35.73049,-9.58792],[-35.73187,-9.58676],[-35.733,-9.58845],[-35.73389,-9.5918],[-35.73294,-9.59462],[-35.73084,-9.59664],[-35.72979,-9.5991],[-35.72881,-9.59975],[-35.72855,-9.6015],[-35.72926,-9.6018],[-35.7286,-9.60275],[-35.72794,-9.60263],[-35.72849,-9.60313],[-35.72798,-9.60353],[-35.72862,-9.60486],[-35.72817,-9.60549],[-35.72941,-9.60736],[-35.7288,-9.60852],[-35.72932,-9.60883],[-35.72928,-9.61119],[-35.73031,-9.6127],[-35.73122,-9.6126],[-35.7322,-9.61334],[-35.73263,-9.61435],[-35.73219,-9.6152],[-35.73058,-9.61609],[-35.73073,-9.61669],[-35.72995,-9.61752],[-35.72861,-9.61689],[-35.72877,-9.61551],[-35.72791,-9.61424],[-35.71879,-9.61426],[-35.71768,-9.61536],[-35.71817,-9.61247],[-35.72163,-9.6081],[-35.72089,-9.60645],[-35.71966,-9.60678],[-35.71894,-9.6079],[-35.71677,-9.6075],[-35.716,-9.60978],[-35.71016,-9.6145],[-35.70449,-9.61401],[-35.70085,-9.60775],[-35.69876,-9.60763],[-35.70129,-9.60551],[-35.7013,-9.6049],[-35.70451,-9.60127],[-35.70477,-9.59974],[-35.70366,-9.59736],[-35.70511,-9.59468],[-35.70667,-9.59412],[-35.70763,-9.59475],[-35.70747,-9.59559],[-35.70895,-9.59535],[-35.70911,-9.59637],[-35.70994,-9.59575],[-35.71098,-9.59616],[-35.71256,-9.5946],[-35.71505,-9.59404],[-35.71608,-9.59295],[-35.71619,-9.59282]]]]}},{"type":"Feature","properties":{"name":"Tabuleiro do Martins"},"geometry":{"type":"MultiPolygon","coordinates":[[[[-35.76444,-9.58448],[-35.76324,-9.58342],[-35.76395,-9.58245],[-35.76247,-9.58142],[-35.76312,-9.58051],[-35.75997,-9.5787],[-35.76071,-9.57771],[-35.7524,-9.57162],[-35.75045,-9.5715],[-35.74571,-9.56258],[-35.74807,-9.55716],[-35.74998,-9.5552],[-35.7527,-9.55439],[-35.75502,-9.5548],[-35.77628,-9.56557],[-35.77789,-9.56559],[-35.77532,-9.57881],[-35.77077,-9.58951],[-35.77059,-9.59147],[-35.76993,-9.59138],[-35.77063,-9.59461],[-35.76826,-9.59452],[-35.76985,-9.59858],[-35.76926,-9.59832],[-35.76867,-9.60075],[-35.76739,-9.59979],[-35.76488,-9.60015],[-35.76342,-9.59847],[-35.76392,-9.59764],[-35.75779,-9.59161],[-35.76078,-9.58953],[-35.76444,-9.58454],[-35.76444,-9.58448]]]]}},{"type":"Feature","properties":{"name":"Trapiche da Barra"},"geometry":{"type":"MultiPolygon","coordinates":[[[[-35.75534,-9.67883],[-35.75296,-9.67741],[-35.75544,-9.67096],[-35.755,-9.67081],[-35.75549,-9.66923],[-35.75425,-9.66896],[-35.75462,-9.66776],[-35.75778,-9.66798],[-35.75776,-9.66416],[-35.76443,-9.66372],[-35.76406,-9.66492],[-35.76472,-9.66502],[-35.76553,-9.66293],[-35.76588,-9.66304],[-35.76462,-9.66681],[-35.7653,-9.66979],[-35.76802,-9.67428],[-35.76775,-9.67388],[-35.76588,-9.67427],[-35.7676,-9.67404],[-35.76788,-9.67486],[-35.76465,-9.67534],[-35.7643,-9.67605],[-35.76325,-9.67629],[-35.76349,-9.67685],[-35.76009,-9.6776],[-35.75891,-9.68136],[-35.75548,-9.67891],[-35.75534,-9.67883]]]]}},{"type":"Feature","properties":{"name":"Vergel do Lago"},"geometry":{"type":"MultiPolygon","coordinates":[[[[-35.75891,-9.65929],[-35.75595,-9.66045],[-35.75169,-9.65545],[-35.75368,-9.65101],[-35.75638,-9.64888],[-35.75938,-9.64894],[-35.76296,-9.65076],[-35.76315,-9.65142],[-35.76505,-9.65246],[-35.76499,-9.6539],[-35.767,-9.65718],[-35.76095,-9.65979],[-35.75891,-9.65948],[-35.75891,-9.65929]]]]}}]}