{"type":"FeatureCollection","features":[{"type":"Feature","properties":{"name":"Curado"},"geometry":{"type":"MultiPolygon","coordinates":[[[[-34.9712,-8.08154],[-34.97237,-8.07951],[-34.9718,-8.07835],[-34.97388,-8.07823],[-34.97419,-8.07915],[-34.97525,-8.07913],[-34.97652,-8.08059],[-34.97632,-8.07986],[-34.9774,-8.07934],[-34.97739,-8.07823],[-34.97898,-8.07799],[-34.97944,-8.07598],[-34.98068,-8.07545],[-34.98324,-8.07586],[-34.98387,-8.07493],[-34.98458,-8.07515],[-34.98525,-8.07427],[-34.98635,-8.07437],[-34.98571,-8.07208],[-34.98616,-8.07155],[-34.98074,-8.06759],[-34.98036,-8.07003],[-34.97548,-8.06819],[-34.97435,-8.07237],[-34.97036,-8.07185],[-34.9713,-8.06747],[-34.96937,-8.06663],[-34.96942,-8.06601],[-34.96722,-8.06641],[-34.96713,-8.06601],[-34.96218,-8.06575],[-34.9595,-8.05976],[-34.95818,-8.05871],[-34.95529,-8.05955],[-34.95461,-8.057],[-34.94577,-8.05967],[-34.94461,-8.06318],[-34.94216,-8.06666],[-34.93463,-8.06893],[-34.9392,-8.07099],[-34.93588,-8.07592],[-34.9377,-8.07487],[-34.94102,-8.07536],[-34.94504,-8.07509],[-34.94572,-8.07463],[-34.94734,-8.07662],[-34.94743,-8.0776],[-34.94929,-8.07748],[-34.95177,-8.07871],[-34.95392,-8.08289],[-34.95389,-8.08428],[-34.95458,-8.08541],[-34.95981,-8.08224],[-34.97025,-8.08049],[-34.97118,-8.08148],[-34.9712,-8.08154]]]]}},{"type":"Feature","properties":{"name":"Dois Unidos"},"geometry":{"type":"MultiPolygon","coordinates":[[[[-34.91022,-7.99242],[-34.90628,-7.99751],[-34.89868,-8.00195],[-34.90282,-8.00601],[-34.90642,-8.00748],[-34.90909,-8.00728],[-34.91022,-8.00639],[-34.91224,-8.00626],[-34.91402,-8.00534],[-34.91401,-8.00469],[-34.91538,-8.00374],[-34.916,-8.00384],[-34.91687,-8.00247],[-34.9211,-8.00054],[-34.92166,-7.99998],[-34.92118,-7.99921],[-34.92366,-7.9927],[-34.91902,-7.98873],[-34.91932,-7.98765],[-34.91728,-7.98715],[-34.91671,-7.98722],[-34.91696,-7.98822],[-34.91025,-7.9924],[-34.91022,-7.99242]]]]}},{"type":"Feature","properties":{"name":"Aflitos"},"geometry":{"type":"MultiPolygon","coordinates":[[[[-34.89256,-8.0399],[-34.89223,-8.03974],[-34.89469,-8.04258],[-34.89733,-8.04368],[-34.8994,-8.03957],[-34.89813,-8.03697],[-34.8943,-8.03828],[-34.89461,-8.03931],[-34.89371,-8.03969],[-34.89256,-8.0399]]]]}},{"type":"Feature","properties":{"name":"Sancho"},"geometry":{"type":"MultiPolygon","coordinates":[[[[-34.96576,-8.08146],[-34.9585,-8.08277],[-34.95637,-8.08427],[-34.95642,-8.08714],[-34.95891,-8.08807],[-34.96459,-8.08693],[-34.96558,-8.08717],[-34.96704,-8.085],[-34.96583,-8.08165],[-34.96576,-8.08146]]]]}},{"type":"Feature","properties":{"name":"Várzea"},"geometry":{"type":"MultiPolygon","coordinates":[[[[-34.96607,-8.02122],[-34.9629,-8.02273],[-34.95849,-8.02985],[-34.94189,-8.03903],[-34.94479,-8.04639],[-34.95375,-8.04638],[-34.95654,-8.05641],[-34.95714,-8.05626],[-34.95775,-8.05703],[-34.95878,-8.0568],[-34.95816,-8.05869],[-34.9595,-8.05976],[-34.96218,-8.06575],[-34.96713,-8.06601],[-34.96722,-8.06641],[-34.9697,-8.06609],[-34.96937,-8.06663],[-34.97068,-8.06697],[-34.97141,-8.06789],[-34.97036,-8.07185],[-34.97435,-8.07237],[-34.97548,-8.06819],[-34.98036,-8.07003],[-34.98074,-8.06759],[-34.98579,-8.0715],[-34.98936,-8.0712],[-34.98927,-8.06926],[-34.99014,-8.06891],[-34.99151,-8.06677],[-34.99316,-8.06631],[-34.99313,-8.06509],[-34.99388,-8.06385],[-34.99297,-8.06219],[-34.995,-8.06253],[-34.99587,-8.06075],[-34.99849,-8.0627],[-34.99839,-8.06314],[-34.99873,-8.06258],[-34.99954,-8.06365],[-35.00253,-8.06438],[-35.00342,-8.06257],[-35.00463,-8.06277],[-35.00626,-8.06118],[-35.00664,-8.0596],[-35.00836,-8.05966],[-35.00919,-8.06038],[-35.0104,-8.05906],[-35.01182,-8.05941],[-35.01247,-8.05903],[-35.01253,-8.05772],[-35.01335,-8.05729],[-35.01362,-8.05623],[-35.01473,-8.05657],[-35.01511,-8.05577],[-35.01684,-8.05561],[-34.99499,-8.04602],[-34.9933,-8.04329],[-34.99327,-8.04186],[-34.99453,-8.03869],[-34.99609,-8.03705],[-34.99657,-8.03535],[-34.99598,-8.03477],[-34.99618,-8.03326],[-34.99394,-8.03284],[-34.99388,-8.032],[-34.99325,-8.03225],[-34.99202,-8.03146],[-34.99155,-8.0324],[-34.99032,-8.0326],[-34.98753,-8.03608],[-34.986,-8.03669],[-34.98475,-8.03546],[-34.98239,-8.03472],[-34.97987,-8.03275],[-34.98,-8.03118],[-34.97867,-8.02938],[-34.97606,-8.02893],[-34.97527,-8.02981],[-34.97454,-8.02979],[-34.96845,-8.02256],[-34.96788,-8.02227],[-34.96712,-8.0228],[-34.9661,-8.02128],[-34.96607,-8.02122]]]]}},{"type":"Feature","properties":{"name":"Coelhos"},"geometry":{"type":"MultiPolygon","coordinates":[[[[-34.89073,-8.06523],[-34.88954,-8.06522],[-34.88949,-8.06631],[-34.88506,-8.06481],[-34.88471,-8.06527],[-34.88553,-8.06574],[-34.88703,-8.06967],[-34.88836,-8.071],[-34.89036,-8.07064],[-34.89412,-8.06821],[-34.89312,-8.066],[-34.89077,-8.06392],[-34.89073,-8.06523]]]]}},{"type":"Feature","properties":{"name":"Peixinhos"},"geometry":{"type":"MultiPolygon","coordinates":[[[[-34.8731,-8.01885],[-34.8734,-8.02029],[-34.87444,-8.02],[-34.87914,-8.0226],[-34.8798,-8.02249],[-34.88015,-8.02161],[-34.87935,-8.02088],[-34.87939,-8.01643],[-34.87292,-8.0173],[-34.8731,-8.01885]]]]}},{"type":"Feature","properties":{"name":"São José"},"geometry":{"type":"MultiPolygon","coordinates":[[[[-34.87482,-8.06652],[-34.87228,-8.06755],[-34.87448,-8.07316],[-34.88732,-8.08001],[-34.88791,-8.08094],[-34.89084,-8.07867],[-34.89117,-8.07799],[-34.89056,-8.07707],[-34.8915,-8.07738],[-34.89198,-8.07599],[-34.90221,-8.07945],[-34.90385,-8.07574],[-34.89428,-8.07275],[-34.88822,-8.07235],[-34.88861,-8.07104],[-34.88703,-8.06967],[-34.88603,-8.06656],[-34.88471,-8.06527],[-34.88293,-8.06735],[-34.88271,-8.0667],[-34.87934,-8.06837],[-34.87855,-8.06761],[-34.87642,-8.0686],[-34.87559,-8.06682],[-34.87482,-8.06652]]]]}},{"type":"Feature","properties":{"name":"Santo Antônio"},"geometry":{"type":"MultiPolygon","coordinates":[[[[-34.87408,-8.0595],[-34.87533,-8.06386],[-34.87482,-8.06652],[-34.87601,-8.06712],[-34.87642,-8.0686],[-34.87855,-8.06761],[-34.87934,-8.06837],[-34.88271,-8.0667],[-34.88293,-8.06735],[-34.88506,-8.0648],[-34.88288,-8.06407],[-34.88001,-8.05947],[-34.87926,-8.05997],[-34.87819,-8.05828],[-34.87694,-8.05749],[-34.87563,-8.05766],[-34.87421,-8.059],[-34.87408,-8.0595]]]]}},{"type":"Feature","properties":{"name":"Recife"},"geometry":{"type":"MultiPolygon","coordinates":[[[[-34.86837,-8.06484],[-34.86972,-8.06828],[-34.87369,-8.06735],[-34.87482,-8.06652],[-34.87533,-8.06386],[-34.87408,-8.0595],[-34.87515,-8.05799],[-34.87651,-8.05732],[-34.87426,-8.05231],[-34.87179,-8.04903],[-34.87028,-8.04592],[-34.8681,-8.03753],[-34.86361,-8.04059],[-34.85756,-8.04775],[-34.86174,-8.04915],[-34.86806,-8.06405],[-34.86837,-8.06484]]]]}},{"type":"Feature","properties":{"name":"Hipódromo"},"geometry":{"type":"MultiPolygon","coordinates":[[[[-34.88838,-8.02854],[-34.88758,-8.0285],[-34.88456,-8.03302],[-34.88856,-8.0357],[-34.89052,-8.03255],[-34.88995,-8.03189],[-34.88968,-8.02892],[-34.88854,-8.02832],[-34.88838,-8.02854]]]]}},{"type":"Feature","properties":{"name":"Rosarinho"},"geometry":{"type":"MultiPolygon","coordinates":[[[[-34.8981,-8.03694],[-34.89939,-8.0363],[-34.89917,-8.03527],[-34.90019,-8.03503],[-34.89737,-8.02945],[-34.89638,-8.02864],[-34.89445,-8.02821],[-34.89513,-8.02856],[-34.89504,-8.03124],[-34.89809,-8.0369],[-34.8981,-8.03694]]]]}},{"type":"Feature","properties":{"name":"Campina do Barreto"},"geometry":{"type":"MultiPolygon","coordinates":[[[[-34.87974,-8.01314],[-34.87921,-8.01765],[-34.8797,-8.01932],[-34.87937,-8.021],[-34.88015,-8.02161],[-34.8798,-8.02249],[-34.88558,-8.0197],[-34.88398,-8.01658],[-34.88513,-8.01627],[-34.88039,-8.01092],[-34.87974,-8.01307],[-34.87974,-8.01314]]]]}},{"type":"Feature","properties":{"name":"Casa Forte"},"geometry":{"type":"MultiPolygon","coordinates":[[[[-34.91528,-8.03154],[-34.91647,-8.03307],[-34.9161,-8.03426],[-34.91464,-8.03497],[-34.91393,-8.03647],[-34.91582,-8.03778],[-34.9184,-8.03796],[-34.92369,-8.03201],[-34.9223,-8.0312],[-34.92153,-8.02954],[-34.91909,-8.03033],[-34.91528,-8.03154]]]]}},{"type":"Feature","properties":{"name":"Parnamirim"},"geometry":{"type":"MultiPolygon","coordinates":[[[[-34.90898,-8.03109],[-34.90789,-8.03267],[-34.90727,-8.03261],[-34.90676,-8.03352],[-34.90578,-8.03384],[-34.90604,-8.03504],[-34.91046,-8.03782],[-34.91461,-8.03718],[-34.91393,-8.03647],[-34.91464,-8.03497],[-34.9161,-8.03426],[-34.91647,-8.03307],[-34.91528,-8.03154],[-34.91297,-8.03227],[-34.91088,-8.02986],[-34.9094,-8.03071],[-34.90898,-8.03109]]]]}},{"type":"Feature","properties":{"name":"Guabiraba"},"geometry":{"type":"MultiPolygon","coordinates":[[[[-35.00834,-7.94562],[-35.00001,-7.929],[-34.99991,-7.92954],[-34.99836,-7.93036],[-34.99745,-7.93016],[-34.99679,-7.93121],[-34.99618,-7.93106],[-34.99644,-7.93162],[-34.99679,-7.9314],[-34.99674,-7.93242],[-34.99594,-7.93322],[-34.99429,-7.93357],[-34.99376,-7.9328],[-34.99325,-7.93319],[-34.99287,-7.93242],[-34.99235,-7.93256],[-34.99234,-7.93339],[-34.99299,-7.93373],[-34.99259,-7.93474],[-34.99121,-7.93481],[-34.99132,-7.93622],[-34.99089,-7.93615],[-34.99027,-7.93757],[-34.99081,-7.93761],[-34.99087,-7.93841],[-34.99006,-7.93911],[-34.98837,-7.93894],[-34.98723,-7.93989],[-34.98791,-7.9401],[-34.9874,-7.94076],[-34.98614,-7.94114],[-34.98472,-7.94074],[-34.98451,-7.93946],[-34.98202,-7.93997],[-34.98091,-7.94074],[-34.98116,-7.94148],[-34.98052,-7.94166],[-34.98016,-7.94117],[-34.97948,-7.94183],[-34.97699,-7.93928],[-34.97634,-7.93957],[-34.97599,-7.93863],[-34.97455,-7.93978],[-34.97433,-7.94091],[-34.97303,-7.9407],[-34.97192,-7.94125],[-34.97152,-7.94049],[-34.97032,-7.94001],[-34.96951,-7.94166],[-34.96787,-7.942],[-34.96729,-7.94175],[-34.96737,-7.94098],[-34.96572,-7.94131],[-34.96591,-7.94036],[-34.96528,-7.94058],[-34.96506,-7.9398],[-34.96477,-7.9404],[-34.96401,-7.94033],[-34.96402,-7.93934],[-34.96335,-7.93943],[-34.96122,-7.93792],[-34.9606,-7.93861],[-34.96011,-7.93766],[-34.95883,-7.93793],[-34.95917,-7.9364],[-34.95865,-7.93577],[-34.95735,-7.93635],[-34.95682,-7.93546],[-34.95604,-7.93568],[-34.9565,-7.93545],[-34.95619,-7.93524],[-34.95546,-7.93558],[-34.95571,-7.93585],[-34.95462,-7.9355],[-34.95379,-7.93611],[-34.95303,-7.93596],[-34.95314,-7.93522],[-34.95188,-7.9359],[-34.95167,-7.93384],[-34.95062,-7.93315],[-34.95093,-7.93249],[-34.9488,-7.93159],[-34.94856,-7.93027],[-34.94756,-7.9306],[-34.94705,-7.92995],[-34.94651,-7.93009],[-34.94538,-7.93146],[-34.94454,-7.92997],[-34.94365,-7.92979],[-34.94287,-7.93007],[-34.94322,-7.93106],[-34.9428,-7.9317],[-34.94156,-7.9303],[-34.94112,-7.93143],[-34.93987,-7.93129],[-34.93761,-7.93337],[-34.93615,-7.93153],[-34.93523,-7.93281],[-34.93404,-7.93268],[-34.93183,-7.93445],[-34.92896,-7.93477],[-34.92824,-7.93553],[-34.92646,-7.93524],[-34.92605,-7.93434],[-34.92475,-7.9347],[-34.92363,-7.93351],[-34.92256,-7.93516],[-34.92113,-7.93509],[-34.92007,-7.93588],[-34.9193,-7.93552],[-34.91901,-7.93657],[-34.91845,-7.93665],[-34.91816,-7.93572],[-34.91704,-7.93533],[-34.91703,-7.93471],[-34.91663,-7.93525],[-34.91609,-7.93476],[-34.91525,-7.93552],[-34.91563,-7.93633],[-34.91491,-7.93607],[-34.91321,-7.93695],[-34.91312,-7.93763],[-34.91088,-7.9392],[-34.9113,-7.94024],[-34.91047,-7.9412],[-34.91107,-7.94251],[-34.9094,-7.94434],[-34.91081,-7.95405],[-34.91283,-7.96071],[-34.9202,-7.9697],[-34.92237,-7.97516],[-34.92597,-7.97698],[-34.93155,-7.98148],[-34.93177,-7.98564],[-34.93562,-7.99032],[-34.93653,-7.99267],[-34.93844,-7.99509],[-34.94049,-7.99357],[-34.94405,-7.99239],[-34.95216,-7.99386],[-34.95789,-7.99853],[-34.95925,-8.00166],[-34.96214,-8.00208],[-34.96374,-8.0029],[-34.96232,-7.99009],[-34.96406,-7.98691],[-34.96357,-7.9846],[-34.96202,-7.98247],[-34.96262,-7.97755],[-34.96123,-7.97559],[-34.96192,-7.97415],[-34.96547,-7.97356],[-34.97098,-7.97161],[-34.97053,-7.9701],[-34.96698,-7.9658],[-34.96799,-7.96474],[-34.97277,-7.96337],[-34.97329,-7.96396],[-34.97324,-7.96354],[-34.97399,-7.96347],[-34.97571,-7.96403],[-34.97586,-7.96568],[-34.97696,-7.96625],[-34.97643,-7.96635],[-34.97658,-7.96717],[-34.97708,-7.96742],[-34.9776,-7.96973],[-34.9795,-7.97025],[-34.98145,-7.96767],[-34.98236,-7.96798],[-34.98242,-7.96718],[-34.98305,-7.96739],[-34.98325,-7.96677],[-34.98598,-7.96639],[-34.98593,-7.96583],[-34.98712,-7.96561],[-34.98718,-7.9648],[-34.98788,-7.96532],[-34.98828,-7.96433],[-34.98951,-7.96377],[-34.98982,-7.96184],[-34.99103,-7.96249],[-34.99191,-7.96168],[-34.99388,-7.96158],[-34.99538,-7.96286],[-34.99767,-7.96258],[-34.99853,-7.96379],[-35.00066,-7.96349],[-35.00368,-7.95946],[-34.99872,-7.94848],[-34.99931,-7.94811],[-35.00024,-7.94851],[-35.00119,-7.9475],[-35.003,-7.94773],[-35.0042,-7.94669],[-35.00531,-7.94675],[-35.00607,-7.94581],[-35.00621,-7.94625],[-35.00833,-7.94562],[-35.00834,-7.94562]]]]}},{"type":"Feature","properties":{"name":"Ilha Joana Bezerra"},"geometry":{"type":"MultiPolygon","coordinates":[[[[-34.90159,-8.06708],[-34.90021,-8.06666],[-34.89907,-8.06777],[-34.89478,-8.06794],[-34.89036,-8.07064],[-34.88861,-8.07104],[-34.88822,-8.07235],[-34.89428,-8.07275],[-34.90385,-8.07574],[-34.90434,-8.07355],[-34.90645,-8.07152],[-34.90663,-8.06966],[-34.90341,-8.06583],[-34.90258,-8.06575],[-34.9016,-8.06707],[-34.90159,-8.06708]]]]}},{"type":"Feature","properties":{"name":"Cabanga"},"geometry":{"type":"MultiPolygon","coordinates":[[[[-34.89151,-8.07736],[-34.89056,-8.07707],[-34.89117,-8.07799],[-34.89084,-8.07867],[-34.88791,-8.08094],[-34.8907,-8.08396],[-34.89373,-8.08265],[-34.90078,-8.08314],[-34.90212,-8.07942],[-34.89198,-8.07599],[-34.89167,-8.07689],[-34.89151,-8.07736]]]]}},{"type":"Feature","properties":{"name":"Ilha do Leite"},"geometry":{"type":"MultiPolygon","coordinates":[[[[-34.89008,-8.06321],[-34.89312,-8.066],[-34.89412,-8.06821],[-34.89671,-8.06765],[-34.89716,-8.06377],[-34.89486,-8.06352],[-34.89524,-8.06282],[-34.89128,-8.06351],[-34.89077,-8.06267],[-34.89007,-8.06321],[-34.89008,-8.06321]]]]}},{"type":"Feature","properties":{"name":"Pau Ferro"},"geometry":{"type":"MultiPolygon","coordinates":[[[[-34.97478,-7.96387],[-34.97198,-7.96354],[-34.97168,-7.96401],[-34.96799,-7.96474],[-34.96696,-7.96583],[-34.97053,-7.9701],[-34.97098,-7.97161],[-34.97222,-7.97176],[-34.97344,-7.9697],[-34.97478,-7.96886],[-34.97785,-7.96939],[-34.97659,-7.96721],[-34.97643,-7.96635],[-34.97696,-7.96625],[-34.97555,-7.96501],[-34.97593,-7.96434],[-34.97479,-7.96387],[-34.97478,-7.96387]]]]}},{"type":"Feature","properties":{"name":"Mangueira"},"geometry":{"type":"MultiPolygon","coordinates":[[[[-34.91962,-8.07882],[-34.92265,-8.07966],[-34.9239,-8.07311],[-34.92236,-8.07433],[-34.91713,-8.07537],[-34.91751,-8.07833],[-34.91962,-8.07882]]]]}},{"type":"Feature","properties":{"name":"Santo Amaro"},"geometry":{"type":"MultiPolygon","coordinates":[[[[-34.87426,-8.05231],[-34.87647,-8.05731],[-34.87819,-8.05828],[-34.87926,-8.05997],[-34.8827,-8.05782],[-34.88431,-8.0578],[-34.88969,-8.0546],[-34.89006,-8.0453],[-34.87028,-8.03621],[-34.8681,-8.03753],[-34.87028,-8.04592],[-34.8732,-8.05097],[-34.87426,-8.05231]]]]}},{"type":"Feature","properties":{"name":"Boa Vista"},"geometry":{"type":"MultiPolygon","coordinates":[[[[-34.88991,-8.04694],[-34.88997,-8.05318],[-34.89229,-8.05266],[-34.89136,-8.05442],[-34.89262,-8.05649],[-34.89303,-8.05898],[-34.89132,-8.05932],[-34.89147,-8.06057],[-34.89016,-8.06039],[-34.88997,-8.0575],[-34.88641,-8.05954],[-34.88699,-8.05776],[-34.8863,-8.05667],[-34.88431,-8.0578],[-34.8827,-8.05782],[-34.88001,-8.05947],[-34.88288,-8.06407],[-34.88949,-8.06631],[-34.88954,-8.06522],[-34.89073,-8.06523],[-34.89077,-8.0639],[-34.89007,-8.06321],[-34.89077,-8.06267],[-34.89128,-8.06351],[-34.89529,-8.06276],[-34.89415,-8.05949],[-34.89735,-8.06236],[-34.8977,-8.05885],[-34.89741,-8.05508],[-34.89006,-8.0453],[-34.88996,-8.04637],[-34.88991,-8.04694]]]]}},{"type":"Feature","properties":{"name":"Espinheiro"},"geometry":{"type":"MultiPolygon","coordinates":[[[[-34.89128,-8.04685],[-34.89374,-8.0501],[-34.89603,-8.04867],[-34.89653,-8.04886],[-34.89697,-8.04763],[-34.89418,-8.04446],[-34.89579,-8.04314],[-34.89454,-8.04244],[-34.89222,-8.03974],[-34.89203,-8.03856],[-34.88766,-8.03982],[-34.8846,-8.04259],[-34.88952,-8.04489],[-34.89106,-8.04656],[-34.89128,-8.04685]]]]}},{"type":"Feature","properties":{"name":"Derby"},"geometry":{"type":"MultiPolygon","coordinates":[[[[-34.89625,-8.05347],[-34.89761,-8.05548],[-34.8977,-8.05885],[-34.89994,-8.06197],[-34.9007,-8.06181],[-34.9009,-8.05861],[-34.90323,-8.05606],[-34.90415,-8.05304],[-34.89898,-8.05242],[-34.897,-8.05298],[-34.89625,-8.05347]]]]}},{"type":"Feature","properties":{"name":"Santana"},"geometry":{"type":"MultiPolygon","coordinates":[[[[-34.91369,-8.03749],[-34.91022,-8.03767],[-34.90995,-8.03814],[-34.91412,-8.0427],[-34.91732,-8.04318],[-34.92012,-8.04196],[-34.91782,-8.03794],[-34.91461,-8.03718],[-34.91369,-8.03745],[-34.91369,-8.03749]]]]}},{"type":"Feature","properties":{"name":"Paissandu"},"geometry":{"type":"MultiPolygon","coordinates":[[[[-34.8977,-8.05885],[-34.89735,-8.06236],[-34.89415,-8.05949],[-34.89529,-8.06276],[-34.89486,-8.06352],[-34.89716,-8.06377],[-34.89671,-8.06766],[-34.89854,-8.06788],[-34.90004,-8.06712],[-34.90084,-8.06339],[-34.9007,-8.06181],[-34.89994,-8.06197],[-34.89792,-8.05892],[-34.8977,-8.05885]]]]}},{"type":"Feature","properties":{"name":"Totó"},"geometry":{"type":"MultiPolygon","coordinates":[[[[-34.9712,-8.08154],[-34.97025,-8.08049],[-34.96576,-8.08146],[-34.96704,-8.085],[-34.96798,-8.08358],[-34.96843,-8.08387],[-34.9702,-8.08253],[-34.97023,-8.08195],[-34.97095,-8.0823],[-34.97134,-8.08376],[-34.97119,-8.08154],[-34.9712,-8.08154]]]]}},{"type":"Feature","properties":{"name":"Graças"},"geometry":{"type":"MultiPolygon","coordinates":[[[[-34.89808,-8.0416],[-34.89733,-8.04368],[-34.89579,-8.04314],[-34.89418,-8.04446],[-34.89697,-8.04763],[-34.89653,-8.04886],[-34.89603,-8.04867],[-34.89374,-8.0501],[-34.89625,-8.05347],[-34.89898,-8.05242],[-34.90415,-8.05304],[-34.90433,-8.05036],[-34.90338,-8.04599],[-34.90478,-8.04205],[-34.90312,-8.04161],[-34.90501,-8.03862],[-34.89963,-8.03618],[-34.89813,-8.03697],[-34.8994,-8.03957],[-34.89833,-8.04118],[-34.89808,-8.0416]]]]}},{"type":"Feature","properties":{"name":"Torre"},"geometry":{"type":"MultiPolygon","coordinates":[[[[-34.90461,-8.04336],[-34.90339,-8.04672],[-34.91497,-8.04855],[-34.9177,-8.04838],[-34.91667,-8.04546],[-34.91664,-8.04326],[-34.91368,-8.04239],[-34.90902,-8.03755],[-34.9068,-8.03757],[-34.9053,-8.03884],[-34.90476,-8.04264],[-34.90461,-8.04336]]]]}},{"type":"Feature","properties":{"name":"Arruda"},"geometry":{"type":"MultiPolygon","coordinates":[[[[-34.8805,-8.02332],[-34.88811,-8.02741],[-34.89445,-8.02821],[-34.89895,-8.02642],[-34.89976,-8.02478],[-34.89873,-8.02409],[-34.89746,-8.02495],[-34.89709,-8.02383],[-34.89384,-8.02317],[-34.89309,-8.02117],[-34.88723,-8.02336],[-34.88558,-8.0197],[-34.88133,-8.02213],[-34.87914,-8.0226],[-34.88041,-8.02329],[-34.8805,-8.02332]]]]}},{"type":"Feature","properties":{"name":"Engenho do Meio"},"geometry":{"type":"MultiPolygon","coordinates":[[[[-34.93946,-8.04985],[-34.93882,-8.05201],[-34.93833,-8.05219],[-34.93925,-8.05304],[-34.94175,-8.06358],[-34.9444,-8.06356],[-34.94612,-8.05816],[-34.94608,-8.05299],[-34.94316,-8.05362],[-34.94295,-8.05201],[-34.94431,-8.05163],[-34.94416,-8.04985],[-34.93957,-8.04948],[-34.93946,-8.04985]]]]}},{"type":"Feature","properties":{"name":"Cajueiro"},"geometry":{"type":"MultiPolygon","coordinates":[[[[-34.88509,-8.00668],[-34.88366,-8.00858],[-34.88039,-8.01092],[-34.88481,-8.01591],[-34.88712,-8.01429],[-34.88928,-8.01388],[-34.88946,-8.01237],[-34.88914,-8.01107],[-34.88822,-8.01056],[-34.88832,-8.0089],[-34.88511,-8.00665],[-34.88509,-8.00668]]]]}},{"type":"Feature","properties":{"name":"Zumbi"},"geometry":{"type":"MultiPolygon","coordinates":[[[[-34.91423,-8.04841],[-34.91703,-8.05739],[-34.92138,-8.05615],[-34.9177,-8.04838],[-34.91417,-8.04816],[-34.91423,-8.04841]]]]}},{"type":"Feature","properties":{"name":"Tamarineira"},"geometry":{"type":"MultiPolygon","coordinates":[[[[-34.90331,-8.02643],[-34.89896,-8.02638],[-34.89517,-8.02826],[-34.89699,-8.029],[-34.8985,-8.03104],[-34.89804,-8.03147],[-34.90019,-8.03503],[-34.89917,-8.03527],[-34.89939,-8.0363],[-34.90171,-8.03697],[-34.90254,-8.03472],[-34.90428,-8.03571],[-34.90568,-8.03383],[-34.90789,-8.03267],[-34.90861,-8.03105],[-34.90721,-8.03014],[-34.90676,-8.02641],[-34.90356,-8.02641],[-34.90331,-8.02643]]]]}},{"type":"Feature","properties":{"name":"Bongi"},"geometry":{"type":"MultiPolygon","coordinates":[[[[-34.92069,-8.06231],[-34.91877,-8.06252],[-34.9176,-8.06436],[-34.91414,-8.06603],[-34.91333,-8.06325],[-34.91203,-8.06382],[-34.91364,-8.06811],[-34.91579,-8.06753],[-34.91696,-8.06979],[-34.92129,-8.06848],[-34.92395,-8.06695],[-34.92282,-8.06384],[-34.92202,-8.06412],[-34.92158,-8.06154],[-34.92075,-8.06215],[-34.92069,-8.06231]]]]}},{"type":"Feature","properties":{"name":"Cidade Universitária"},"geometry":{"type":"MultiPolygon","coordinates":[[[[-34.94416,-8.04985],[-34.94431,-8.05163],[-34.94295,-8.05201],[-34.94315,-8.05358],[-34.94608,-8.05299],[-34.94577,-8.05967],[-34.95461,-8.057],[-34.95529,-8.05955],[-34.95818,-8.05871],[-34.95878,-8.0568],[-34.95775,-8.05703],[-34.95714,-8.05626],[-34.95654,-8.05641],[-34.95375,-8.04638],[-34.94384,-8.04629],[-34.94402,-8.04829],[-34.94416,-8.04985]]]]}},{"type":"Feature","properties":{"name":"Torreão"},"geometry":{"type":"MultiPolygon","coordinates":[[[[-34.87875,-8.03989],[-34.8846,-8.04259],[-34.88679,-8.04042],[-34.88366,-8.0377],[-34.88349,-8.03892],[-34.8827,-8.03855],[-34.88142,-8.04034],[-34.87904,-8.03923],[-34.87888,-8.0396],[-34.87875,-8.03989]]]]}},{"type":"Feature","properties":{"name":"Jaqueira"},"geometry":{"type":"MultiPolygon","coordinates":[[[[-34.90585,-8.03469],[-34.90568,-8.03383],[-34.90428,-8.03571],[-34.90254,-8.03472],[-34.90159,-8.03691],[-34.90501,-8.03862],[-34.9032,-8.04165],[-34.90478,-8.04205],[-34.90511,-8.03932],[-34.90635,-8.03781],[-34.90778,-8.03727],[-34.90995,-8.03814],[-34.91022,-8.03767],[-34.90781,-8.03654],[-34.90588,-8.03483],[-34.90585,-8.03469]]]]}},{"type":"Feature","properties":{"name":"Caçote"},"geometry":{"type":"MultiPolygon","coordinates":[[[[-34.92782,-8.10239],[-34.92876,-8.10243],[-34.93222,-8.10464],[-34.93483,-8.10468],[-34.93476,-8.0992],[-34.93279,-8.09965],[-34.92872,-8.09586],[-34.92783,-8.10237],[-34.92782,-8.10239]]]]}},{"type":"Feature","properties":{"name":"Ipsep"},"geometry":{"type":"MultiPolygon","coordinates":[[[[-34.921,-8.11934],[-34.92621,-8.11321],[-34.92774,-8.10309],[-34.9278,-8.10238],[-34.92527,-8.10226],[-34.92354,-8.10019],[-34.92245,-8.1019],[-34.92241,-8.10413],[-34.91749,-8.10435],[-34.91645,-8.10523],[-34.91598,-8.10654],[-34.91628,-8.11511],[-34.92081,-8.11919],[-34.921,-8.11934]]]]}},{"type":"Feature","properties":{"name":"Porto da Madeira"},"geometry":{"type":"MultiPolygon","coordinates":[[[[-34.89172,-8.00369],[-34.89077,-8.00341],[-34.88511,-8.00665],[-34.88832,-8.0089],[-34.88822,-8.01056],[-34.88923,-8.01136],[-34.89207,-8.01085],[-34.89424,-8.00812],[-34.89181,-8.00392],[-34.89172,-8.00369]]]]}},{"type":"Feature","properties":{"name":"Jordão"},"geometry":{"type":"MultiPolygon","coordinates":[[[[-34.9443,-8.13764],[-34.9474,-8.13762],[-34.94734,-8.13436],[-34.94597,-8.13221],[-34.93343,-8.12932],[-34.93398,-8.13448],[-34.93296,-8.13495],[-34.93228,-8.1362],[-34.92952,-8.1377],[-34.92943,-8.14074],[-34.92377,-8.1406],[-34.92164,-8.13982],[-34.92006,-8.14128],[-34.91773,-8.14184],[-34.91795,-8.14319],[-34.92152,-8.14158],[-34.92729,-8.14123],[-34.93254,-8.14191],[-34.93373,-8.14124],[-34.93718,-8.13682],[-34.94429,-8.13764],[-34.9443,-8.13764]]]]}},{"type":"Feature","properties":{"name":"Prado"},"geometry":{"type":"MultiPolygon","coordinates":[[[[-34.92138,-8.05615],[-34.91703,-8.05739],[-34.91646,-8.05551],[-34.91168,-8.05685],[-34.9096,-8.05888],[-34.90984,-8.06081],[-34.90898,-8.06526],[-34.91333,-8.06325],[-34.91414,-8.06603],[-34.9176,-8.06436],[-34.91887,-8.06247],[-34.92066,-8.06239],[-34.92098,-8.0617],[-34.92575,-8.06052],[-34.92399,-8.05546],[-34.92146,-8.05613],[-34.92138,-8.05615]]]]}},{"type":"Feature","properties":{"name":"Dois Irmãos"},"geometry":{"type":"MultiPolygon","coordinates":[[[[-34.96303,-8.00248],[-34.95925,-8.00166],[-34.95789,-7.99853],[-34.95216,-7.99386],[-34.94405,-7.99239],[-34.94049,-7.99357],[-34.93853,-7.99501],[-34.9393,-7.99663],[-34.93929,-7.9981],[-34.93684,-8.0095],[-34.93925,-8.01467],[-34.94234,-8.01936],[-34.94273,-8.02309],[-34.94377,-8.02319],[-34.94624,-8.02115],[-34.9479,-8.02055],[-34.95092,-8.02057],[-34.9535,-8.02263],[-34.95575,-8.02252],[-34.95485,-8.02018],[-34.95137,-8.01684],[-34.95211,-8.01167],[-34.95775,-8.00683],[-34.95678,-8.00435],[-34.96307,-8.00251],[-34.96303,-8.00248]]]]}},{"type":"Feature","properties":{"name":"Madalena"},"geometry":{"type":"MultiPolygon","coordinates":[[[[-34.90416,-8.05301],[-34.90323,-8.05606],[-34.9009,-8.05861],[-34.9007,-8.06181],[-34.90487,-8.06108],[-34.90959,-8.06209],[-34.9096,-8.05888],[-34.91133,-8.05711],[-34.91646,-8.05551],[-34.91413,-8.04815],[-34.90339,-8.04672],[-34.90433,-8.05036],[-34.90416,-8.053],[-34.90416,-8.05301]]]]}},{"type":"Feature","properties":{"name":"Soledade"},"geometry":{"type":"MultiPolygon","coordinates":[[[[-34.88631,-8.05667],[-34.88699,-8.05776],[-34.88641,-8.05954],[-34.88997,-8.0575],[-34.89016,-8.06039],[-34.89147,-8.06057],[-34.89132,-8.05932],[-34.89303,-8.05898],[-34.89262,-8.05649],[-34.89136,-8.05442],[-34.89229,-8.05266],[-34.88997,-8.05317],[-34.88954,-8.05488],[-34.88631,-8.05666],[-34.88631,-8.05667]]]]}},{"type":"Feature","properties":{"name":"Torrões"},"geometry":{"type":"MultiPolygon","coordinates":[[[[-34.93011,-8.06173],[-34.93278,-8.06949],[-34.94216,-8.06666],[-34.9444,-8.06356],[-34.94175,-8.06358],[-34.93925,-8.05304],[-34.93821,-8.05209],[-34.93739,-8.05302],[-34.9367,-8.05283],[-34.9363,-8.05426],[-34.93433,-8.05349],[-34.93496,-8.05471],[-34.93375,-8.05507],[-34.93115,-8.05818],[-34.93234,-8.06268],[-34.93011,-8.06173]]]]}},{"type":"Feature","properties":{"name":"Iputinga"},"geometry":{"type":"MultiPolygon","coordinates":[[[[-34.93395,-8.02254],[-34.93301,-8.02287],[-34.93323,-8.0248],[-34.93182,-8.02593],[-34.93077,-8.02827],[-34.9274,-8.03239],[-34.92658,-8.03451],[-34.92627,-8.03809],[-34.92566,-8.03899],[-34.92663,-8.0397],[-34.92995,-8.04564],[-34.93092,-8.04511],[-34.93256,-8.04699],[-34.94015,-8.04712],[-34.93957,-8.04948],[-34.94413,-8.04987],[-34.94384,-8.04629],[-34.94479,-8.04639],[-34.94189,-8.03903],[-34.94552,-8.03704],[-34.94448,-8.03496],[-34.94461,-8.02751],[-34.94193,-8.02727],[-34.93814,-8.02428],[-34.93786,-8.02358],[-34.93847,-8.02217],[-34.93811,-8.02188],[-34.93414,-8.0225],[-34.93395,-8.02254]]]]}},{"type":"Feature","properties":{"name":"San Martin"},"geometry":{"type":"MultiPolygon","coordinates":[[[[-34.92176,-8.06338],[-34.92202,-8.06412],[-34.92282,-8.06384],[-34.92395,-8.06695],[-34.92288,-8.06749],[-34.92417,-8.07256],[-34.92331,-8.07663],[-34.93115,-8.07496],[-34.93137,-8.07559],[-34.93468,-8.07772],[-34.9392,-8.07099],[-34.93456,-8.06891],[-34.93278,-8.06949],[-34.93011,-8.06172],[-34.92734,-8.06057],[-34.92562,-8.06054],[-34.92158,-8.06154],[-34.92177,-8.06332],[-34.92176,-8.06338]]]]}},{"type":"Feature","properties":{"name":"Passarinho"},"geometry":{"type":"MultiPolygon","coordinates":[[[[-34.91636,-7.98491],[-34.91671,-7.98527],[-34.91617,-7.98614],[-34.91671,-7.98722],[-34.91932,-7.98765],[-34.91902,-7.98873],[-34.92366,-7.9927],[-34.92118,-7.99921],[-34.92156,-7.99951],[-34.92434,-7.99717],[-34.92599,-7.9928],[-34.92692,-7.99167],[-34.92759,-7.99212],[-34.92832,-7.99136],[-34.92944,-7.98836],[-34.93325,-7.9875],[-34.93165,-7.98527],[-34.93193,-7.98264],[-34.93145,-7.98136],[-34.9261,-7.97707],[-34.92221,-7.97495],[-34.9202,-7.9697],[-34.91283,-7.96071],[-34.91081,-7.95405],[-34.91428,-7.98259],[-34.91545,-7.98334],[-34.91635,-7.98489],[-34.91636,-7.98491]]]]}},{"type":"Feature","properties":{"name":"Jardim São Paulo"},"geometry":{"type":"MultiPolygon","coordinates":[[[[-34.9431,-8.0752],[-34.9377,-8.07487],[-34.93588,-8.07592],[-34.93385,-8.07955],[-34.93522,-8.07997],[-34.93445,-8.08545],[-34.93826,-8.08654],[-34.94172,-8.08652],[-34.9473,-8.08966],[-34.95086,-8.08933],[-34.95458,-8.08541],[-34.95389,-8.08428],[-34.95382,-8.08268],[-34.95246,-8.08081],[-34.95177,-8.07871],[-34.9508,-8.0779],[-34.94743,-8.0776],[-34.94734,-8.07662],[-34.94572,-8.07463],[-34.94373,-8.07516],[-34.9431,-8.0752]]]]}},{"type":"Feature","properties":{"name":"Areias"},"geometry":{"type":"MultiPolygon","coordinates":[[[[-34.9242,-8.09323],[-34.91994,-8.09499],[-34.91985,-8.09591],[-34.92168,-8.09735],[-34.92534,-8.10229],[-34.92782,-8.10239],[-34.92872,-8.09586],[-34.93279,-8.09965],[-34.93476,-8.0992],[-34.93483,-8.10468],[-34.93772,-8.10457],[-34.93992,-8.10087],[-34.94251,-8.0996],[-34.93985,-8.10041],[-34.94002,-8.09699],[-34.9377,-8.09229],[-34.93608,-8.09174],[-34.93683,-8.09067],[-34.93771,-8.0864],[-34.93211,-8.08474],[-34.92996,-8.08803],[-34.92946,-8.09081],[-34.92534,-8.09271],[-34.9242,-8.09323]]]]}},{"type":"Feature","properties":{"name":"Tejipió"},"geometry":{"type":"MultiPolygon","coordinates":[[[[-34.96355,-8.09324],[-34.96514,-8.091],[-34.96558,-8.08716],[-34.96459,-8.08693],[-34.95869,-8.08805],[-34.95642,-8.08714],[-34.95637,-8.08427],[-34.95391,-8.08589],[-34.95086,-8.08933],[-34.94672,-8.08942],[-34.94706,-8.09251],[-34.95329,-8.08998],[-34.95758,-8.091],[-34.95746,-8.09181],[-34.95856,-8.09226],[-34.96062,-8.09599],[-34.96155,-8.09516],[-34.96174,-8.09385],[-34.96257,-8.09396],[-34.96354,-8.09325],[-34.96355,-8.09324]]]]}},{"type":"Feature","properties":{"name":"Cordeiro"},"geometry":{"type":"MultiPolygon","coordinates":[[[[-34.91667,-8.04546],[-34.91892,-8.05171],[-34.92138,-8.05615],[-34.92399,-8.05546],[-34.92575,-8.06052],[-34.92734,-8.06057],[-34.93234,-8.06268],[-34.93115,-8.05818],[-34.93375,-8.05507],[-34.93496,-8.05471],[-34.93433,-8.05349],[-34.9363,-8.05426],[-34.9367,-8.05283],[-34.93739,-8.05302],[-34.938,-8.052],[-34.93882,-8.05201],[-34.94022,-8.04733],[-34.93256,-8.04699],[-34.93092,-8.04511],[-34.92995,-8.04564],[-34.92663,-8.0397],[-34.92566,-8.03899],[-34.91863,-8.0429],[-34.91664,-8.04326],[-34.91664,-8.04473],[-34.91667,-8.04546]]]]}},{"type":"Feature","properties":{"name":"Barro"},"geometry":{"type":"MultiPolygon","coordinates":[[[[-34.96045,-8.09509],[-34.9595,-8.09452],[-34.95856,-8.09226],[-34.95746,-8.09181],[-34.9576,-8.09101],[-34.9536,-8.08996],[-34.94706,-8.09251],[-34.94672,-8.08942],[-34.94107,-8.08636],[-34.93773,-8.08641],[-34.93683,-8.09067],[-34.93608,-8.09174],[-34.9377,-8.09229],[-34.94002,-8.09699],[-34.93985,-8.10041],[-34.94251,-8.0996],[-34.94501,-8.09645],[-34.94714,-8.0958],[-34.94844,-8.09477],[-34.94983,-8.0971],[-34.95005,-8.09907],[-34.94831,-8.10282],[-34.94859,-8.10612],[-34.94679,-8.10944],[-34.95389,-8.11146],[-34.95458,-8.11075],[-34.95654,-8.11206],[-34.96181,-8.10966],[-34.9633,-8.10654],[-34.96281,-8.10631],[-34.96297,-8.09994],[-34.96201,-8.09866],[-34.96231,-8.09608],[-34.96155,-8.09516],[-34.96062,-8.09599],[-34.96046,-8.09512],[-34.96045,-8.09509]]]]}},{"type":"Feature","properties":{"name":"Estância"},"geometry":{"type":"MultiPolygon","coordinates":[[[[-34.93162,-8.07837],[-34.92998,-8.07881],[-34.92844,-8.08147],[-34.92651,-8.08312],[-34.92878,-8.08382],[-34.92534,-8.09271],[-34.92946,-8.09081],[-34.92996,-8.08803],[-34.93211,-8.08474],[-34.93445,-8.08544],[-34.93522,-8.07997],[-34.93385,-8.07955],[-34.93468,-8.07772],[-34.93312,-8.07842],[-34.93164,-8.07837],[-34.93162,-8.07837]]]]}},{"type":"Feature","properties":{"name":"Fundão"},"geometry":{"type":"MultiPolygon","coordinates":[[[[-34.89222,-8.01057],[-34.88923,-8.01136],[-34.88928,-8.01388],[-34.88712,-8.01429],[-34.88481,-8.01591],[-34.88615,-8.01686],[-34.88777,-8.01691],[-34.88813,-8.01844],[-34.89024,-8.01857],[-34.89189,-8.0169],[-34.89248,-8.01755],[-34.89646,-8.0135],[-34.89446,-8.01106],[-34.89417,-8.00953],[-34.89318,-8.00908],[-34.89258,-8.00989],[-34.89222,-8.01057]]]]}},{"type":"Feature","properties":{"name":"Coqueiral"},"geometry":{"type":"MultiPolygon","coordinates":[[[[-34.96954,-8.08933],[-34.96961,-8.08811],[-34.97027,-8.08816],[-34.97032,-8.08751],[-34.97139,-8.08767],[-34.97176,-8.08827],[-34.97326,-8.08748],[-34.97368,-8.08642],[-34.97198,-8.08487],[-34.97101,-8.0824],[-34.97023,-8.08195],[-34.9702,-8.08253],[-34.96843,-8.08387],[-34.96798,-8.08358],[-34.96625,-8.08582],[-34.9652,-8.08834],[-34.96514,-8.091],[-34.96354,-8.09325],[-34.96587,-8.09475],[-34.96625,-8.09415],[-34.96436,-8.09315],[-34.96522,-8.0922],[-34.96513,-8.09149],[-34.96788,-8.09134],[-34.96821,-8.08985],[-34.96949,-8.08935],[-34.96954,-8.08933]]]]}},{"type":"Feature","properties":{"name":"Poço"},"geometry":{"type":"MultiPolygon","coordinates":[[[[-34.92372,-8.02883],[-34.92153,-8.02954],[-34.9223,-8.0312],[-34.92369,-8.03201],[-34.92252,-8.03369],[-34.92108,-8.03449],[-34.91921,-8.03749],[-34.91782,-8.03794],[-34.92012,-8.04196],[-34.92521,-8.03935],[-34.92627,-8.03809],[-34.92658,-8.03451],[-34.92766,-8.03197],[-34.92581,-8.02933],[-34.92431,-8.02941],[-34.92404,-8.02873],[-34.92372,-8.02883]]]]}},{"type":"Feature","properties":{"name":"Caxangá"},"geometry":{"type":"MultiPolygon","coordinates":[[[[-34.96596,-8.02091],[-34.96551,-8.01982],[-34.95437,-8.0229],[-34.95244,-8.02209],[-34.95114,-8.02064],[-34.9479,-8.02055],[-34.94624,-8.02115],[-34.94377,-8.02319],[-34.94273,-8.02309],[-34.94295,-8.02743],[-34.94461,-8.02751],[-34.94448,-8.03496],[-34.94495,-8.0363],[-34.94552,-8.03704],[-34.95849,-8.02985],[-34.9629,-8.02273],[-34.96604,-8.02114],[-34.96596,-8.02091]]]]}},{"type":"Feature","properties":{"name":"Sítio dos Pintos - São Brás"},"geometry":{"type":"MultiPolygon","coordinates":[[[[-34.96159,-8.02098],[-34.96204,-8.02085],[-34.9644,-8.00867],[-34.96374,-8.0029],[-34.96307,-8.00251],[-34.95678,-8.00435],[-34.95778,-8.00678],[-34.95556,-8.00827],[-34.95392,-8.01031],[-34.95251,-8.01097],[-34.95137,-8.01684],[-34.95485,-8.02018],[-34.95574,-8.02251],[-34.96158,-8.02098],[-34.96159,-8.02098]]]]}},{"type":"Feature","properties":{"name":"Beberibe"},"geometry":{"type":"MultiPolygon","coordinates":[[[[-34.89765,-8.00153],[-34.89543,-8.00297],[-34.8917,-8.00352],[-34.89405,-8.00791],[-34.89651,-8.00775],[-34.89686,-8.00904],[-34.89816,-8.00991],[-34.89991,-8.00552],[-34.89959,-8.00414],[-34.90064,-8.00381],[-34.89771,-8.00152],[-34.89765,-8.00153]]]]}},{"type":"Feature","properties":{"name":"Bomba do Hemetério"},"geometry":{"type":"MultiPolygon","coordinates":[[[[-34.8972,-8.0239],[-34.89746,-8.02495],[-34.89873,-8.02409],[-34.89976,-8.02478],[-34.90072,-8.02279],[-34.90822,-8.01994],[-34.90661,-8.01789],[-34.90512,-8.01866],[-34.90574,-8.01726],[-34.90461,-8.0184],[-34.904,-8.01765],[-34.90339,-8.01907],[-34.90172,-8.01905],[-34.90155,-8.01968],[-34.89877,-8.01991],[-34.89813,-8.01942],[-34.89743,-8.021],[-34.89771,-8.02166],[-34.89681,-8.02204],[-34.89719,-8.02386],[-34.8972,-8.0239]]]]}},{"type":"Feature","properties":{"name":"Mangabeira"},"geometry":{"type":"MultiPolygon","coordinates":[[[[-34.9049,-8.02114],[-34.90072,-8.02279],[-34.89896,-8.02638],[-34.90356,-8.02641],[-34.90657,-8.0256],[-34.90674,-8.02484],[-34.9057,-8.02409],[-34.90532,-8.02269],[-34.90389,-8.0232],[-34.90322,-8.02232],[-34.90491,-8.02114],[-34.9049,-8.02114]]]]}},{"type":"Feature","properties":{"name":"Casa Amarela"},"geometry":{"type":"MultiPolygon","coordinates":[[[[-34.91749,-8.02132],[-34.91706,-8.02053],[-34.91445,-8.02133],[-34.91472,-8.02254],[-34.91264,-8.0238],[-34.90547,-8.02619],[-34.90676,-8.02641],[-34.90723,-8.03018],[-34.90881,-8.03126],[-34.91088,-8.02986],[-34.91297,-8.03227],[-34.92404,-8.02873],[-34.92371,-8.02816],[-34.9244,-8.02768],[-34.92676,-8.02755],[-34.92723,-8.0269],[-34.92564,-8.02368],[-34.92569,-8.02165],[-34.92661,-8.01983],[-34.91782,-8.02124],[-34.91749,-8.02132]]]]}},{"type":"Feature","properties":{"name":"Linha do Tiro"},"geometry":{"type":"MultiPolygon","coordinates":[[[[-34.89914,-8.00712],[-34.89816,-8.00991],[-34.90355,-8.01066],[-34.90509,-8.01278],[-34.90511,-8.01173],[-34.90551,-8.01184],[-34.90688,-8.01397],[-34.90897,-8.01244],[-34.9112,-8.01304],[-34.91279,-8.01213],[-34.91034,-8.01123],[-34.91075,-8.00808],[-34.91126,-8.0076],[-34.91087,-8.00768],[-34.91046,-8.00637],[-34.90909,-8.00728],[-34.90642,-8.00748],[-34.90282,-8.00601],[-34.90064,-8.00381],[-34.89959,-8.00414],[-34.89991,-8.00552],[-34.89954,-8.00628],[-34.89914,-8.00712]]]]}},{"type":"Feature","properties":{"name":"Encruzilhada"},"geometry":{"type":"MultiPolygon","coordinates":[[[[-34.88991,-8.03155],[-34.89052,-8.03255],[-34.88856,-8.0357],[-34.88538,-8.03354],[-34.88327,-8.03579],[-34.88394,-8.03648],[-34.88365,-8.0377],[-34.88658,-8.04029],[-34.89203,-8.03856],[-34.89242,-8.03994],[-34.89371,-8.03969],[-34.89461,-8.03931],[-34.8943,-8.03828],[-34.89813,-8.03697],[-34.89504,-8.03124],[-34.8915,-8.03113],[-34.89175,-8.03],[-34.88985,-8.02969],[-34.88989,-8.0308],[-34.88991,-8.03155]]]]}},{"type":"Feature","properties":{"name":"Brasília Teimosa"},"geometry":{"type":"MultiPolygon","coordinates":[[[[-34.87667,-8.08497],[-34.87937,-8.09127],[-34.88172,-8.09055],[-34.88161,-8.08916],[-34.88357,-8.08374],[-34.88247,-8.08302],[-34.88282,-8.08232],[-34.88155,-8.08134],[-34.88369,-8.07809],[-34.87448,-8.07316],[-34.87227,-8.06753],[-34.86972,-8.06828],[-34.87668,-8.08494],[-34.87667,-8.08497]]]]}},{"type":"Feature","properties":{"name":"Pina"},"geometry":{"type":"MultiPolygon","coordinates":[[[[-34.88369,-8.07809],[-34.88155,-8.08134],[-34.88282,-8.08232],[-34.88247,-8.08302],[-34.88357,-8.08374],[-34.88161,-8.08916],[-34.88172,-8.09055],[-34.87937,-8.09127],[-34.88226,-8.09987],[-34.88267,-8.10042],[-34.88661,-8.09875],[-34.88829,-8.10244],[-34.89425,-8.10769],[-34.8948,-8.10799],[-34.8958,-8.10715],[-34.89734,-8.10766],[-34.89904,-8.10731],[-34.89902,-8.1091],[-34.90051,-8.11118],[-34.90139,-8.10992],[-34.902,-8.10715],[-34.90441,-8.10584],[-34.9047,-8.10483],[-34.90422,-8.10279],[-34.9078,-8.09571],[-34.90727,-8.09259],[-34.90509,-8.09072],[-34.90411,-8.0889],[-34.90346,-8.08491],[-34.90078,-8.08314],[-34.89525,-8.08259],[-34.8929,-8.08286],[-34.8907,-8.08396],[-34.88732,-8.08001],[-34.8837,-8.07807],[-34.88369,-8.07809]]]]}},{"type":"Feature","properties":{"name":"Brejo da Guabiraba"},"geometry":{"type":"MultiPolygon","coordinates":[[[[-34.9313,-7.98771],[-34.92955,-7.98827],[-34.93049,-7.98935],[-34.92783,-7.99349],[-34.92982,-7.99516],[-34.93058,-7.99458],[-34.93189,-7.99544],[-34.9326,-7.99751],[-34.93478,-7.99807],[-34.93788,-7.9944],[-34.93562,-7.99032],[-34.93326,-7.98751],[-34.93135,-7.98769],[-34.9313,-7.98771]]]]}},{"type":"Feature","properties":{"name":"Ilha do Retiro"},"geometry":{"type":"MultiPolygon","coordinates":[[[[-34.9007,-8.06181],[-34.90084,-8.0642],[-34.90021,-8.06666],[-34.90103,-8.06704],[-34.9031,-8.0657],[-34.90527,-8.06817],[-34.90769,-8.06546],[-34.90901,-8.06507],[-34.90959,-8.06209],[-34.90487,-8.06108],[-34.90117,-8.06172],[-34.9007,-8.06181]]]]}},{"type":"Feature","properties":{"name":"Mustardinha"},"geometry":{"type":"MultiPolygon","coordinates":[[[[-34.91725,-8.06964],[-34.91579,-8.06753],[-34.91422,-8.06805],[-34.91597,-8.07426],[-34.9171,-8.07423],[-34.91737,-8.07532],[-34.92236,-8.07433],[-34.92417,-8.07289],[-34.92288,-8.06749],[-34.92129,-8.06848],[-34.91747,-8.06953],[-34.91725,-8.06964]]]]}},{"type":"Feature","properties":{"name":"Ibura"},"geometry":{"type":"MultiPolygon","coordinates":[[[[-34.9372,-8.10471],[-34.93222,-8.10464],[-34.92876,-8.10243],[-34.92781,-8.10243],[-34.92588,-8.11379],[-34.9211,-8.11927],[-34.91823,-8.12159],[-34.91452,-8.1228],[-34.91773,-8.14184],[-34.92006,-8.14128],[-34.92175,-8.1398],[-34.92377,-8.1406],[-34.92943,-8.14074],[-34.92952,-8.1377],[-34.93228,-8.1362],[-34.93296,-8.13495],[-34.93398,-8.13448],[-34.93343,-8.12932],[-34.94597,-8.13221],[-34.94401,-8.12927],[-34.94373,-8.12472],[-34.94277,-8.12038],[-34.9465,-8.11004],[-34.94868,-8.10581],[-34.94831,-8.10282],[-34.95008,-8.09857],[-34.94965,-8.09665],[-34.94844,-8.09477],[-34.94714,-8.0958],[-34.94501,-8.09645],[-34.94254,-8.09958],[-34.94004,-8.10075],[-34.9374,-8.1047],[-34.9372,-8.10471]]]]}},{"type":"Feature","properties":{"name":"Alto José Bonifácio"},"geometry":{"type":"MultiPolygon","coordinates":[[[[-34.91123,-8.01152],[-34.91279,-8.01213],[-34.9112,-8.01304],[-34.91019,-8.01267],[-34.91018,-8.01738],[-34.91097,-8.0192],[-34.91364,-8.01686],[-34.91507,-8.01696],[-34.91647,-8.01612],[-34.91583,-8.01528],[-34.91666,-8.01491],[-34.91546,-8.01142],[-34.91231,-8.00724],[-34.91075,-8.00808],[-34.91034,-8.01123],[-34.91113,-8.01149],[-34.91123,-8.01152]]]]}},{"type":"Feature","properties":{"name":"Alto do Mandu"},"geometry":{"type":"MultiPolygon","coordinates":[[[[-34.93136,-8.02067],[-34.93022,-8.02002],[-34.92842,-8.02009],[-34.9288,-8.01845],[-34.92843,-8.01817],[-34.92661,-8.01983],[-34.92569,-8.02165],[-34.92602,-8.02456],[-34.92819,-8.02554],[-34.92801,-8.02477],[-34.92924,-8.0233],[-34.92941,-8.02183],[-34.93138,-8.02174],[-34.93137,-8.02068],[-34.93136,-8.02067]]]]}},{"type":"Feature","properties":{"name":"Morro da Conceição"},"geometry":{"type":"MultiPolygon","coordinates":[[[[-34.9149,-8.01697],[-34.91364,-8.01686],[-34.91095,-8.01891],[-34.91163,-8.02041],[-34.9119,-8.02411],[-34.91472,-8.02254],[-34.91445,-8.02133],[-34.91708,-8.02052],[-34.91778,-8.01963],[-34.91778,-8.01714],[-34.91637,-8.01612],[-34.91507,-8.01696],[-34.9149,-8.01697]]]]}},{"type":"Feature","properties":{"name":"Alto José do Pinho"},"geometry":{"type":"MultiPolygon","coordinates":[[[[-34.91035,-8.01863],[-34.90912,-8.01862],[-34.90791,-8.01951],[-34.90821,-8.01995],[-34.90491,-8.02114],[-34.9032,-8.02222],[-34.9034,-8.0227],[-34.90389,-8.0232],[-34.90532,-8.02269],[-34.9057,-8.02409],[-34.90674,-8.02484],[-34.90657,-8.0256],[-34.9119,-8.02411],[-34.91163,-8.02041],[-34.91067,-8.0185],[-34.91035,-8.01863]]]]}},{"type":"Feature","properties":{"name":"Vasco da Gama"},"geometry":{"type":"MultiPolygon","coordinates":[[[[-34.91779,-8.00348],[-34.91231,-8.00724],[-34.91554,-8.01159],[-34.91666,-8.01491],[-34.91583,-8.01528],[-34.91778,-8.01714],[-34.91778,-8.01963],[-34.91706,-8.02053],[-34.91749,-8.02133],[-34.92535,-8.02034],[-34.92438,-8.019],[-34.92435,-8.01725],[-34.92337,-8.01558],[-34.92322,-8.00984],[-34.92215,-8.00864],[-34.92243,-8.00681],[-34.92131,-8.00599],[-34.92231,-8.00454],[-34.92161,-8.00348],[-34.91915,-8.00256],[-34.91793,-8.00336],[-34.91779,-8.00348]]]]}},{"type":"Feature","properties":{"name":"Boa Viagem"},"geometry":{"type":"MultiPolygon","coordinates":[[[[-34.91795,-8.14319],[-34.91559,-8.12883],[-34.91254,-8.13006],[-34.91274,-8.13106],[-34.91206,-8.13104],[-34.91211,-8.13161],[-34.91083,-8.13149],[-34.9095,-8.12109],[-34.90808,-8.11897],[-34.9054,-8.11725],[-34.90211,-8.11283],[-34.90004,-8.11104],[-34.89899,-8.10901],[-34.89904,-8.10731],[-34.89734,-8.10766],[-34.8958,-8.10715],[-34.8948,-8.10799],[-34.89425,-8.10769],[-34.88829,-8.10244],[-34.88661,-8.09875],[-34.88267,-8.10041],[-34.89538,-8.12564],[-34.90789,-8.15533],[-34.91146,-8.15453],[-34.91116,-8.15362],[-34.91195,-8.15333],[-34.91217,-8.15435],[-34.91373,-8.15395],[-34.91157,-8.14969],[-34.91404,-8.14875],[-34.91375,-8.14796],[-34.91459,-8.14763],[-34.91366,-8.14513],[-34.91792,-8.1432],[-34.91795,-8.14319]]]]}},{"type":"Feature","properties":{"name":"Alto Santa Terezinha"},"geometry":{"type":"MultiPolygon","coordinates":[[[[-34.90588,-8.01393],[-34.90642,-8.01507],[-34.90621,-8.01668],[-34.90512,-8.01866],[-34.90661,-8.01789],[-34.90791,-8.01952],[-34.90917,-8.0186],[-34.91067,-8.0185],[-34.90988,-8.01463],[-34.91024,-8.0125],[-34.90897,-8.01244],[-34.90688,-8.01397],[-34.90512,-8.01171],[-34.90513,-8.01308],[-34.90587,-8.01392],[-34.90588,-8.01393]]]]}},{"type":"Feature","properties":{"name":"Macaxeira"},"geometry":{"type":"MultiPolygon","coordinates":[[[[-34.93322,-8.00384],[-34.93128,-8.00621],[-34.93036,-8.00553],[-34.92962,-8.00587],[-34.92665,-8.00542],[-34.92552,-8.007],[-34.92579,-8.0081],[-34.92663,-8.00852],[-34.92743,-8.01102],[-34.92618,-8.01222],[-34.926,-8.01316],[-34.927,-8.01513],[-34.9275,-8.01834],[-34.927,-8.01848],[-34.92723,-8.01889],[-34.9288,-8.01841],[-34.92816,-8.01979],[-34.92857,-8.02015],[-34.93049,-8.02008],[-34.92962,-8.0189],[-34.93096,-8.01658],[-34.93318,-8.01836],[-34.93415,-8.01834],[-34.93527,-8.01721],[-34.93422,-8.0128],[-34.93325,-8.01201],[-34.93456,-8.01132],[-34.93553,-8.00992],[-34.93395,-8.00888],[-34.93338,-8.00611],[-34.9343,-8.00485],[-34.93405,-8.00394],[-34.93332,-8.00382],[-34.93322,-8.00384]]]]}},{"type":"Feature","properties":{"name":"Brejo de Beberibe"},"geometry":{"type":"MultiPolygon","coordinates":[[[[-34.92156,-7.99951],[-34.9211,-8.00054],[-34.91687,-8.00247],[-34.916,-8.00384],[-34.91401,-8.00469],[-34.91402,-8.00534],[-34.91204,-8.00633],[-34.91046,-8.00637],[-34.91087,-8.00768],[-34.91231,-8.00724],[-34.91913,-8.00256],[-34.92224,-8.00333],[-34.92278,-8.00192],[-34.92371,-8.00172],[-34.92304,-8.00088],[-34.92332,-8.00024],[-34.92378,-7.99985],[-34.92475,-8.00026],[-34.92806,-7.99643],[-34.92982,-7.99516],[-34.92783,-7.99349],[-34.93049,-7.98935],[-34.92955,-7.98827],[-34.92832,-7.99136],[-34.92759,-7.99212],[-34.92692,-7.99167],[-34.92599,-7.9928],[-34.92434,-7.99717],[-34.92159,-7.99949],[-34.92156,-7.99951]]]]}},{"type":"Feature","properties":{"name":"Nova Descoberta"},"geometry":{"type":"MultiPolygon","coordinates":[[[[-34.92982,-7.99516],[-34.92806,-7.99643],[-34.92475,-8.00026],[-34.92378,-7.99985],[-34.92332,-8.00024],[-34.92304,-8.00088],[-34.92371,-8.00172],[-34.92278,-8.00192],[-34.9223,-8.00325],[-34.92163,-8.0035],[-34.92231,-8.00456],[-34.92131,-8.00599],[-34.92241,-8.00676],[-34.92219,-8.0088],[-34.92322,-8.00984],[-34.92337,-8.01558],[-34.92435,-8.01725],[-34.92438,-8.019],[-34.92536,-8.02033],[-34.92782,-8.01877],[-34.927,-8.01848],[-34.9275,-8.01835],[-34.927,-8.01513],[-34.926,-8.01328],[-34.92618,-8.01222],[-34.92743,-8.01102],[-34.92663,-8.00852],[-34.92579,-8.0081],[-34.92579,-8.00646],[-34.92665,-8.00542],[-34.92962,-8.00587],[-34.93036,-8.00553],[-34.93128,-8.00621],[-34.93304,-8.0039],[-34.93404,-8.00393],[-34.93529,-8.00297],[-34.9368,-8.00068],[-34.93609,-7.99884],[-34.93428,-7.99777],[-34.9326,-7.99751],[-34.93189,-7.99544],[-34.93058,-7.99458],[-34.92997,-7.99502],[-34.92982,-7.99516]]]]}},{"type":"Feature","properties":{"name":"Monteiro"},"geometry":{"type":"MultiPolygon","coordinates":[[[[-34.93371,-8.02127],[-34.93169,-8.02201],[-34.93089,-8.02152],[-34.92941,-8.02183],[-34.92924,-8.0233],[-34.92801,-8.02477],[-34.92819,-8.02554],[-34.92635,-8.02481],[-34.92615,-8.0253],[-34.92723,-8.0269],[-34.92676,-8.02755],[-34.92371,-8.02816],[-34.92431,-8.02941],[-34.92581,-8.02933],[-34.92766,-8.03197],[-34.93077,-8.02827],[-34.93182,-8.02593],[-34.93323,-8.0248],[-34.93291,-8.02321],[-34.93395,-8.02254],[-34.93372,-8.02127],[-34.93371,-8.02127]]]]}},{"type":"Feature","properties":{"name":"Campo Grande"},"geometry":{"type":"MultiPolygon","coordinates":[[[[-34.87548,-8.02667],[-34.87621,-8.02975],[-34.87556,-8.03175],[-34.87074,-8.0361],[-34.87875,-8.03989],[-34.87904,-8.03923],[-34.88142,-8.04034],[-34.8827,-8.03855],[-34.88349,-8.03892],[-34.88394,-8.03648],[-34.88327,-8.03579],[-34.88537,-8.03356],[-34.88456,-8.03302],[-34.88556,-8.03143],[-34.88758,-8.0285],[-34.88817,-8.02881],[-34.88856,-8.0283],[-34.88966,-8.02891],[-34.88985,-8.0277],[-34.88811,-8.02741],[-34.87444,-8.02],[-34.87348,-8.02062],[-34.87548,-8.02667]]]]}},{"type":"Feature","properties":{"name":"Água Fria"},"geometry":{"type":"MultiPolygon","coordinates":[[[[-34.89573,-8.00772],[-34.89386,-8.00825],[-34.89318,-8.00908],[-34.89421,-8.00958],[-34.89446,-8.01106],[-34.89646,-8.0135],[-34.89248,-8.01755],[-34.89189,-8.0169],[-34.89024,-8.01857],[-34.88813,-8.01844],[-34.88777,-8.01691],[-34.88513,-8.01627],[-34.88398,-8.01658],[-34.88723,-8.02336],[-34.89309,-8.02117],[-34.89384,-8.02317],[-34.8972,-8.0239],[-34.89681,-8.02204],[-34.89771,-8.02166],[-34.89743,-8.021],[-34.89813,-8.01942],[-34.89877,-8.01991],[-34.90155,-8.01968],[-34.90172,-8.01905],[-34.90339,-8.01907],[-34.904,-8.01765],[-34.90461,-8.0184],[-34.90602,-8.01718],[-34.90624,-8.01448],[-34.9037,-8.01079],[-34.89816,-8.00991],[-34.89686,-8.00904],[-34.89651,-8.00775],[-34.89593,-8.0077],[-34.89573,-8.00772]]]]}},{"type":"Feature","properties":{"name":"Imbiribeira"},"geometry":{"type":"MultiPolygon","coordinates":[[[[-34.90297,-8.08446],[-34.90385,-8.08572],[-34.90459,-8.09005],[-34.90693,-8.09206],[-34.90773,-8.09352],[-34.9078,-8.09571],[-34.90422,-8.10279],[-34.9047,-8.10483],[-34.90441,-8.10584],[-34.90179,-8.10746],[-34.90059,-8.11154],[-34.9054,-8.11725],[-34.90808,-8.11897],[-34.9095,-8.12109],[-34.91072,-8.13107],[-34.91083,-8.13149],[-34.91211,-8.13161],[-34.91206,-8.13104],[-34.91274,-8.13106],[-34.91254,-8.13006],[-34.91558,-8.12883],[-34.91452,-8.1228],[-34.91741,-8.12214],[-34.921,-8.11934],[-34.91628,-8.11511],[-34.91625,-8.10559],[-34.91749,-8.10435],[-34.92241,-8.10413],[-34.92245,-8.1019],[-34.9237,-8.10048],[-34.92168,-8.09735],[-34.91991,-8.09615],[-34.9192,-8.09008],[-34.91838,-8.08906],[-34.91328,-8.08827],[-34.91059,-8.08387],[-34.90928,-8.08308],[-34.90298,-8.08446],[-34.90297,-8.08446]]]]}},{"type":"Feature","properties":{"name":"Jiquiá"},"geometry":{"type":"MultiPolygon","coordinates":[[[[-34.92366,-8.07666],[-34.92223,-8.08145],[-34.9254,-8.08371],[-34.92437,-8.08401],[-34.92296,-8.08266],[-34.92312,-8.0837],[-34.92205,-8.08342],[-34.91836,-8.08494],[-34.91685,-8.08698],[-34.91678,-8.08876],[-34.918,-8.08882],[-34.9192,-8.09008],[-34.91923,-8.09285],[-34.91994,-8.09499],[-34.92534,-8.09271],[-34.92878,-8.08382],[-34.92651,-8.08312],[-34.92844,-8.08147],[-34.92998,-8.07881],[-34.93468,-8.07772],[-34.93137,-8.07559],[-34.93115,-8.07496],[-34.92454,-8.0764],[-34.92366,-8.07666]]]]}},{"type":"Feature","properties":{"name":"Afogados"},"geometry":{"type":"MultiPolygon","coordinates":[[[[-34.90918,-8.06518],[-34.90769,-8.06546],[-34.90534,-8.06792],[-34.90653,-8.06934],[-34.90657,-8.07123],[-34.90434,-8.07355],[-34.90416,-8.07518],[-34.9027,-8.0776],[-34.90078,-8.08314],[-34.90298,-8.08446],[-34.90928,-8.08308],[-34.91059,-8.08387],[-34.91328,-8.08827],[-34.91678,-8.08876],[-34.91688,-8.08685],[-34.91816,-8.08505],[-34.92205,-8.08342],[-34.92294,-8.08381],[-34.92305,-8.08264],[-34.92437,-8.08401],[-34.9254,-8.08371],[-34.92223,-8.08145],[-34.92265,-8.07966],[-34.91751,-8.07833],[-34.9171,-8.07423],[-34.91597,-8.07426],[-34.91419,-8.06797],[-34.91364,-8.06811],[-34.91288,-8.06677],[-34.91207,-8.06399],[-34.91024,-8.06465],[-34.90918,-8.06518]]]]}},{"type":"Feature","properties":{"name":"Apipucos"},"geometry":{"type":"MultiPolygon","coordinates":[[[[-34.93403,-8.01838],[-34.93306,-8.01833],[-34.93096,-8.01658],[-34.92962,-8.0189],[-34.93125,-8.02046],[-34.93169,-8.02201],[-34.93371,-8.02127],[-34.93395,-8.02254],[-34.93838,-8.02201],[-34.93786,-8.02358],[-34.93814,-8.02428],[-34.94171,-8.02715],[-34.94295,-8.02743],[-34.94234,-8.01936],[-34.93925,-8.01467],[-34.93684,-8.0095],[-34.9378,-8.00618],[-34.93654,-8.00918],[-34.93325,-8.01201],[-34.93422,-8.0128],[-34.93531,-8.01692],[-34.93415,-8.01834],[-34.93403,-8.01838]]]]}},{"type":"Feature","properties":{"name":"Córrego do Jenipapo"},"geometry":{"type":"MultiPolygon","coordinates":[[[[-34.93739,-7.99509],[-34.93478,-7.99806],[-34.93623,-7.99901],[-34.9368,-8.00068],[-34.93404,-8.00393],[-34.9343,-8.00485],[-34.93338,-8.00611],[-34.93395,-8.00888],[-34.93503,-8.00927],[-34.93551,-8.01031],[-34.93745,-8.00746],[-34.93929,-7.9981],[-34.93893,-7.99561],[-34.93788,-7.9944],[-34.93745,-7.99502],[-34.93739,-7.99509]]]]}},{"type":"Feature","properties":{"name":"Ponto de Parada"},"geometry":{"type":"MultiPolygon","coordinates":[[[[-34.8915,-8.03113],[-34.89504,-8.03124],[-34.89513,-8.02856],[-34.88985,-8.0277],[-34.88985,-8.02969],[-34.89175,-8.03],[-34.8915,-8.03112],[-34.8915,-8.03113]]]]}},{"type":"Feature","properties":{"name":"Cohab - Ibura de Cima"},"geometry":{"type":"MultiPolygon","coordinates":[[[[-34.95788,-8.11156],[-34.95654,-8.11206],[-34.95458,-8.11075],[-34.95389,-8.11146],[-34.94679,-8.10944],[-34.94301,-8.11902],[-34.9428,-8.12075],[-34.94373,-8.12472],[-34.94401,-8.12927],[-34.94721,-8.13394],[-34.9474,-8.13762],[-34.94806,-8.13799],[-34.95026,-8.13822],[-34.95122,-8.13751],[-34.95207,-8.13772],[-34.95177,-8.13836],[-34.95336,-8.13872],[-34.95511,-8.13733],[-34.95654,-8.13795],[-34.95627,-8.13699],[-34.95719,-8.13418],[-34.95218,-8.13025],[-34.95397,-8.12366],[-34.95568,-8.1292],[-34.95666,-8.12886],[-34.95741,-8.12981],[-34.95843,-8.1298],[-34.96052,-8.1273],[-34.96063,-8.12529],[-34.95918,-8.12263],[-34.96027,-8.11955],[-34.95891,-8.11708],[-34.95977,-8.11456],[-34.95894,-8.11197],[-34.95793,-8.11157],[-34.95788,-8.11156]]]]}}]}